Settlement House,Title,Main Office (delete or move to keep formatting),Address,City,Borough,State,Zipcode,Programs,Early Childhood Education,Afterschool Programs,Older Adult Services,Latitude,Longitude
Arab-American Family Support Center,Family Justice Center Staten Island,,126 Stuyvesant Place,Staten Island,Staten Island,NY,10301,Violence Prevention,,,,40.643158,-74.077194
Arab-American Family Support Center,Family Justice Center Queens,,126-02 82nd Avenue,Kew Gardens,Queens,NY,11415,Violence Prevention,,,,40.713443,-73.826011
Arab-American Family Support Center,Court Street Headquarters,X,150 Court Street,Brooklyn,Brooklyn,NY,11201,"Food Access, Family Services, Health & Fitness, Housing & Homelessness, Immigrant Services, Other Children & Youth Services",,,,40.68878,-73.992974
Arab-American Family Support Center,Family Justice Center Bronx,,"198 East 161st Street, 2nd Floor",Bronx,Bronx,NY,10451,Violence Prevention,,,,40.826149,-73.920908
Arab-American Family Support Center,Family Justice Center Brooklyn,,350 Jay Street,Brooklyn,Brooklyn,NY,11201,Violence Prevention,,,,40.693456,-73.987761
Arab-American Family Support Center,Khalil Gibran International Academy High School,,362 Schermerhorn Street,Brooklyn,Brooklyn,NY,11217,Other Children & Youth Services,,,,40.686441,-73.97971
Arab-American Family Support Center,Queens 1,,"37-10 30th Street, 2nd Floor",Long Island City,Queens,NY,11101,"Mental Health & Substance Abuse, Other Children & Youth Services, Family Services",,,,40.755107,-73.932211
Arab-American Family Support Center,Queens 2,,"37-14 30th Street, 2nd Floor",Long Island City,Queens,NY,11101,"Mental Health & Substance Abuse, Other Children & Youth Services, Family Services",,,,40.754991,-73.932306
Arab-American Family Support Center,Atlantic Avenue Community Center,,384-386 Atlantic Avenue,Brooklyn,Brooklyn,NY,11217,"Mental Health & Substance Abuse, Adult Literacy, Other Children & Youth Services, Family Services, Food Access, Health & Fitness",,,,40.687079,-73.985702
Arab-American Family Support Center,Family Justice Center Manhattan,,"80 Centre Street, 5th Floor",New York,Manhattan,NY,10013,Violence Prevention,,,,40.715371,-74.001727
Arab-American Family Support Center,Bronx,,"966 Morris Park Ave, 2nd Fl",Bronx,Bronx,NY,10462,"Other Children & Youth Services, Family Services",,,,40.847522,-73.857165
Broadway Housing Communities,The Rio,,10 Fort Washington Ave,New York,Manhattan,NY,10032,"Arts & Culture, Civic Engagement & Community Organizing, Housing & Homelessness, Mental Health & Substance Abuse",,,,40.835826,-73.944466
Broadway Housing Communities,The Benziger-Abraham House,,345 Edgecombe Ave,New York,Manhattan,NY,10031,"Housing & Homelessness, Mental Health & Substance Abuse",,,,40.827048,-73.941589
Broadway Housing Communities,The Delta,,409 W 145th St,New York,Manhattan,NY,10031,"NORC, Housing & Homelessness, Mental Health & Substance Abuse",,,Older Adults,40.824434,-73.945301
Broadway Housing Communities,Dorothy Day Apartments,X,583 Riverside Dr,New York,Manhattan,NY,10031,"Child Care Center, Head Start, Other Children & Youth Services, Arts & Culture, Family Services, Housing & Homelessness, Workforce Development",Early Childhood Education,,,40.821172,-73.957199
Broadway Housing Communities,Sugar Hill Children's Museum of Art & Storytelling ,,898 St. Nicholas Ave,New York,Manhattan,,10032,Arts & Culture,,,,40.830478,-73.941187
Broadway Housing Communities,Sugar Hill Project,,898 St. Nicholas Ave,New York,Manhattan,NY,10032,"Child Care Center, Head Start, Other Children & Youth Services, Arts & Culture, Civic Engagement & Community Organizing, Family Services, Health & Fitness, Housing & Homelessness, Mental Health & Substance Abuse, Workforce Development",Early Childhood Education,,,40.830478,-73.941187
Bronx House,Bronx House Day Camps,,1 Happy Camper Way,Pearl River,Pearl River,NY,10965,Other Children & Youth Services,,,,41.065951,-73.996115
Bronx House,UPK Wallace Ave. Site (NYCHA),,2222 Wallace Avenue,Bronx,Bronx,NY,10467,Child Care Center,Early Childhood Education,,,40.858398,-73.864329
Bronx House,Pelham Parkway NORC,,"2425 Williamsbridge Road, Suite 1B",Bronx,Bronx,NY,10469,NORC,,,Older Adults,40.861664,-73.858546
Bronx House,"Bronx Park Middle School, Bronx Green Middle School, Pelham Academy Middle School (SONYC)",,2441 Wallace Ave,Bronx,Bronx,NY,10467,COMPASS/SONYC,,Afterschool,,40.862677,-73.864679
Bronx House,Main Building,X,990 Pelham Parkway South,Bronx,Bronx,NY,10461,"Older Adult Center, Child Care Center, Other Children & Youth Services, Arts & Culture, Health & Fitness",Early Childhood Education,,Older Adults,40.856649,-73.860412
Bronx Works,Carolyn McLaughlin Community Center,,1130 Grand Concourse,Bronx,Bronx,NY,10456,"Child Care Center, COMPASS/SONYC, Head Start, Summer Rising, Youth Employment Services, Other Children & Youth Services, Older Adult Center, Other Older Adult Services, Adult Literacy, Civic Engagement & Community Organizing, Food Access, Family Services, Health & Fitness, Housing & Homelessness, Immigrant Services, Workforce Development",Early Childhood Education,Afterschool,Older Adults,40.832721,-73.919072
Bronx Works,Edenwald Houses,,"1141 E 229th St., Apt 1D",Bronx,Bronx,NY,10466,Family Services,,,,40.886907,-73.845181
Bronx Works,Baychester Houses,,1220 E 229th St,Bronx,Bronx,NY,10466,Workforce Development,,,,40.884482,-73.842809
Bronx Works,Highbridge Houses,,125 West 166th St.,Bronx,Bronx,NY,10452,Workforce Development,,,,40.835511,-73.927131
Bronx Works,Stratford Towers Office,,1340 Morrison Ave.,Bronx,Bronx,NY,10472,"Youth Employment Services, Family Services, Workforce Development, Adult Literacy",,,,40.832705,-73.875158
Bronx Works,Franklin Houses,,1381 Franklin Ave.,Bronx,Bronx,NY,10456,Workforce Development,,,,40.833665,-73.900684
Bronx Works,Early Childhood Learning Center,,1472 Montgomery Ave.,Bronx,Bronx,NY,10453,"Head Start, Child Care Center",Early Childhood Education,,,40.847413,-73.921031
Bronx Works,Townsend Avenue,,1477 Townsend Ave.,Bronx,Bronx,NY,10452,"Immigrant Services, Family Services",,,,40.841874,-73.915514
Bronx Works,151 East Tremont,,151 E. Tremont Ave.,Bronx,Bronx,NY,10453,"Health & Fitness, Mental Health & Substance Abuse",,,,40.850461,-73.906755
Bronx Works,BronxWorks HomeBase Community Access Site,,1524 Boone Ave.,Bronx,Bronx,NY,10460,Housing & Homelessness,,,,40.832661,-73.884934
Bronx Works,PS 42,,1537 Washington Ave.,Bronx,Bronx,NY,10457,COMPASS/SONYC,,Afterschool,,40.838568,-73.903027
Bronx Works,Sedgwick Social Club,,1553 University Ave.,Bronx,Bronx,NY,10453,Other Older Adult Services,,,Older Adults,40.846441,-73.921959
Bronx Works,IS 313 and IS 339 Community Schools,,1600 Webster Ave.,Bronx,Bronx,NY,10457,Community School,,,,40.840671,-73.90426
Bronx Works,Mott Haven Charter,,170 Brown Place,Bronx,Bronx,NY,10454,COMPASS/SONYC,,Afterschool,,40.806375,-73.921029
Bronx Works,Murphy Houses,,1805 Crotona Ave.,Bronx,Bronx,NY,10457,Workforce Development,,,,40.842756,-73.89393
Bronx Works,Twin Parks South West,,"1880 Valentine Ave, first floor",Bronx,Bronx,NY,10457,Family Services,,,,40.849054,-73.900536
Bronx Works,BronxWorks HomeBase Community Access Site,,1923 W Farms Rd,Bronx,Bronx,NY ,10460,Housing & Homelessness,,,,40.838999,-73.880957
Bronx Works,Adlai Stevenson High School YABC Program,,1980 Lafayette Ave.,Bronx,Bronx,NY,10473,Other Children & Youth Services,,,,40.822161,-73.855875
Bronx Works,Twin Parks South East,,2111 Southern Boulevard,Bronx,Bronx,NY,10460,Family Services,,,,40.846275,-73.884531
Bronx Works,East Concourse Older Adult Center,,236 East Tremont Ave.,Bronx,Bronx,NY,10457,Older Adult Center,,,Older Adults,40.84877,-73.904556
Bronx Works,Classic Community Center,,286 E. 156th St.,Bronx,Bronx,NY,10451,Cornerstone,,Afterschool,,40.821536,-73.920267
Bronx Works,River Park Residences NORC,,30 Richman Plaza,Bronx,Bronx,NY,10453,NORC,,,Older Adults,40.85218,-73.922617
Bronx Works,Park Haven,,345 St Anns Ave,Bronx,Bronx,NY,10454,Housing & Homelessness,,,,40.809648,-73.915839
Bronx Works,Twin Parks West,,355 E. 183 St.,Bronx,Bronx,NY,10458,"Food Access, Workforce Development, Older Adult Center",,,Older Adults,40.856664,-73.896224
Bronx Works,SONYC/BronxWorks After-School Program at South Bronx Prep,,360 E 145th St.,Bronx,Bronx,NY,10454,COMPASS/SONYC,,Afterschool,,40.813669,-73.920296
Bronx Works,Jerome Avenue Men's Shelter (JAMS),,3600 Jerome Ave. ,Bronx ,Bronx,NY,10467,Housing & Homelessness,,,,40.885457,-73.878955
Bronx Works,Frederick Douglass Academy III,,3630 Third Ave.,Bronx,Bronx,NY,10456,Other Children & Youth Services,,,,40.83379,-73.904119
Bronx Works,Soundview Older Adult Center,,391 Bronx River Ave.,Bronx,Bronx,NY,10473,Older Adult Center,,,Older Adults,40.814732,-73.867394
Bronx Works,425 Grand Concourse,,425 Grand Concourse,Bronx,Bronx,NY,10451,Family Services,,,,40.817079,-73.928192
Bronx Works,Cooper Gardens,,4511 3rd Ave,Bronx,Bronx,NY,10457,Housing & Homelessness,,,,40.853655,-73.89152
Bronx Works,The Brook,,455 East 148th St.,Bronx,Bronx,NY,10455,Housing & Homelessness,,,,40.814467,-73.91558
Bronx Works,BronxWorks HomeBase Community Access Site,,491 Gerard Ave.,Bronx,Bronx,NY,10451,Housing & Homelessness,,,,40.818599,-73.929713
Bronx Works,Third Avenue Afterschool Program,,500 E. 165th St.,Bronx,Bronx,NY,10456,COMPASS/SONYC,,Afterschool,,40.82647,-73.907992
Bronx Works,E. Roberts Moore Older Adult Center,,515 Jackson Ave.,Bronx,Bronx,NY,10455,Older Adult Center,,,Older Adults,40.812468,-73.909634
Bronx Works,Betances Community Center,,547 E. 146th Street,Bronx,Bronx,NY,10455,Cornerstone,,Afterschool,,40.812575,-73.914544
Bronx Works,Workforce Development Main Office,,550 E. 142 St.,Bronx,Bronx,NY,10454,"Workforce Development, Youth Employment Services",,,,40.809775,-73.916168
Bronx Works,Bronx Point,,575 Exterior St.,Bronx,Bronx,NY,10451,Housing & Homelessness,,,,40.820306,-73.9311
Bronx Works,St. Mary's Park Cornerstone Community Center,,595 Trinity Ave.,Bronx,Bronx,NY,10455,Cornerstone,,Afterschool,,40.815135,-73.90973
Bronx Works,Administrative Office,X,60 East Tremont Ave.,Bronx,Bronx,NY,10453,"Immigrant Services, Family Services",,,,40.850963,-73.908069
Bronx Works,Hunts Point Multiservice Center,,630 Jackson Ave.,Bronx,Bronx,NY,10455,"Family Services, Mental Health & Substance Abuse, Housing & Homelessness, Other Older Adult Services",,,Older Adults,40.815408,-73.90795
Bronx Works,Avenue St. John,,630 Southern Blvd.,Bronx,Bronx,NY,10455,Family Services,,,,40.812812,-73.901198
Bronx Works,Sack Wern,,"715 Noble Ave, 1st Floor",Bronx,Bronx,NY,10473,Family Services,,,,40.81904,-73.867414
Bronx Works,Bronxchester,,725 Saint Ann's Ave.,Bronx,Bronx,NY,10455,"Workforce Development, Other Children & Youth Services",,,,40.819127,-73.910987
Bronx Works,PS 130 Abrams Steven Hewitt,,750 Prospect Ave.,Bronx,Bronx,NY,10455,COMPASS/SONYC,,Afterschool,,40.817878,-73.902122
Bronx Works,Jill Chaifetz Transfer School,,778 Forest Ave.,Bronx,Bronx,NY,10456,Other Children & Youth Services,,,,40.818782,-73.905819
Bronx Works,Heights Older Adult Center,,80 E 181st St,Bronx,Bronx,NY,10453,Older Adult Center,,,Older Adults,40.855043,-73.904312
Bronx Works,Morris Older Adult Center,,80 East 181st St.,Bronx,Bronx,NY,10453,"Older Adult Center, Other Older Adult Services",,,Older Adults,40.855043,-73.904312
Bronx Works,The Living Room/Safe Haven,,800 Barretto St.,Bronx,Bronx,NY,10474,Housing & Homelessness,,,,40.816828,-73.889821
Bronx Works,Tenant Defense Program,,818 River Avenue,Bronx,Bronx,NY,10451,Housing & Homelessness,,,,40.826391,-73.926617
Bronx Works,Thieriot Office,,820 Thieriot Ave.,Bronx,Bronx,NY,10473,Family Services,,,,40.822061,-73.861904
Bronx Works,Pyramid Cornerstone Community Center,,884 Washington Ave.,Bronx,Bronx,NY,10451,Cornerstone,,Afterschool,,40.823067,-73.911215
Bronx Works,Woodstock Terrace,,890 Trinity Ave.,Bronx,Bronx,NY,10456,"NORC, Immigrant Services",,,Older Adults,40.822071,-73.905953
Bronx Works,Family Enrichment Center ,,Barnes Avenue,Bronx,Bronx,NY,,Family Services,,,,40.904244,-73.847868
Bronx Works,BronxWorks Mott Haven Farm Stand,,"Padre Plaza, E 139th St.",Bronx,Bronx,NY,10454,"Family Services, Health & Fitness",,,,40.807884,-73.91791
CAMBA,Belmont Daniels,,101 Daniel Low Terrace,Staten Island,Staten Island,NY,10301,Housing & Homelessness,,,,40.642398,-74.080661
CAMBA,880 Willoughby,,1013-1023 Broadway,Brooklyn,Brooklyn,NY,11221,Housing & Homelessness,,,,40.695781,-73.932838
CAMBA,The Hart,,1038 Broadway,Brooklyn,Brooklyn,NY,11221,Housing & Homelessness,,,,40.6953,-73.93272
CAMBA,Beach 21st Street,,1047 Beach 21st Street,Far Rockaway,Queens,NY,11691,Housing & Homelessness,,,,40.603364,-73.754078
CAMBA,Gateway Elton Street Phase I,,1062 Elton Street,Brooklyn,Brooklyn,NY,11239,Housing & Homelessness,,,,40.657331,-73.874881
CAMBA,CAMBA All-Stars at P.S. 114,,1077 Remsen Avenue,Brooklyn,Brooklyn,NY,11236,"Summer Rising, COMPASS/SONYC",,Afterschool,,40.642532,-73.908128
CAMBA,Apex Place,,108-60 Horace Harding Expressway,Forest Hills,Queens,NY,11375,Housing & Homelessness,,,,40.7373333,-73.8523123
CAMBA,Buckingham House,,11-15 Port Richmond Avenue,Staten Island,Staten Island,NY,10302,Housing & Homelessness,,,,40.640271,-74.131466
CAMBA,Solutions to End Homelessness Program & Homebase,,"1117 Eastern Parkway
",Brooklyn,Brooklyn,NY,11213,Housing & Homelessness,,,,40.669211,-73.931332
CAMBA,Beacon 271 at The John M. Coleman Campus,,1137 Herkimer Street,Brooklyn,Brooklyn,NY,11233,Beacon,,Afterschool,,40.677932,-73.915732
CAMBA,Evergreen Family Residence,,1144 Evergreen Avenue,Bronx,Bronx,NY,10472,Housing & Homelessness,,,,40.827004,-73.88059
CAMBA,Brownsville Academy High School,,1150 East New York Avenue,Brooklyn,Brooklyn,NY,11212,"Community School, Other Children & Youth Services",,,,40.666374,-73.924106
CAMBA,Gateway Elton Street Phase III,,1166 Elton Street,Brooklyn,Brooklyn,NY,11239,Housing & Homelessness,,,,40.655909,-73.873812
CAMBA,Rugged Cross Apartments,,12 Patchen Avenue,Brooklyn,Brooklyn,NY,11221,Housing & Homelessness,,,,40.692303,-73.928089
CAMBA,Homebase,,120 Stuyvesant Place,Staten Island,Staten Island,NY,10301,Housing & Homelessness,,,,40.643314,-74.077298
CAMBA,Broadway House Women’s Shelter,,1245 Broadway,Brooklyn,Brooklyn,NY,11221,Housing & Homelessness,,,,40.691478,-73.925265
CAMBA,Morris Manor,,1247 Flatbush Avenue,Brooklyn,Brooklyn,NY,11226,Housing & Homelessness,,,,40.639946,-73.954701
CAMBA,Multi-service Program Office,,1259 Flatbush Avenue,Brooklyn,Brooklyn,NY,11226,"Mental Health & Substance Abuse, Health & Fitness",,,,40.639731,-73.954486
CAMBA,"Park Slope Womens Shelter
",,"1402 8th Avenue
",Brooklyn,Brooklyn,NY,11215,Housing & Homelessness,,,,40.66255,-73.982217
CAMBA,"Magnolia House Womens Shelter
",,1424 Herkimer Street,Brooklyn,Brooklyn,NY,11233,Housing & Homelessness,,,,40.677169,-73.906251
CAMBA,"Lower East Side Prepatory High School, Career Ready SYEP",,"145 Stanton Street
",New York,Manhattan,NY,10002,"Other Children & Youth Services, Youth Employment Services",,,,40.720544,-73.98578
CAMBA,Dumont Green,,1490 Dumont Avenue,Brooklyn,Brooklyn,NY,11208,Housing & Homelessness,,,,40.670806,-73.862541
CAMBA,Albany Cornerstone,,164 Troy Avenue,Brooklyn,Brooklyn,NY,11213,Cornerstone,,Afterschool,,40.67405,-73.936577
CAMBA,Scattered Site Housing Program-Queens,,164-21 Hillside Avenue,Jamaica,Queens,NY,11432,Housing & Homelessness,,,,40.709225,-73.798143
CAMBA,"Brownsville In, Violence Out (BIVO)",,1667 Pitkin Avenue,Brooklyn,Brooklyn,NY,11212,Violence Prevention,,,,40.669658,-73.911831
CAMBA,"Brownsville In, Violence Out (BIVO North)",,1755 Broadway,Brooklyn,Brooklyn,NY,11207,Violence Prevention,,,,40.682949,-73.910241
CAMBA,CAMBA Kids Connection at P.S. 249,,18 Marlborough Road,Brooklyn,Brooklyn,NY,11226,"Summer Rising, COMPASS/SONYC",,Afterschool,,40.649654,-73.966192
CAMBA,Via Vyse,,1812 Vyse Avenue,Bronx,Bronx,NY,10460,Housing & Homelessness,,,,40.838271,-73.884899
CAMBA,Castleton Park,,185 Saint Marks Place,Staten Island,Staten Island,NY,10301,Housing & Homelessness,,,,40.645528,-74.080392
CAMBA,Multi-service Program Office,,19 Winthrop Street,Brooklyn,Brooklyn,NY,11225,"Health & Fitness, Housing & Homelessness, Family Services",,,,40.656632,-73.959485
CAMBA,Beacon 361 at P.S.361 East Flatbush Early Childhood School & College Bound,,1957 Nostrand Avenue,Brooklyn,Brooklyn,NY,11210,"Beacon, Other Children & Youth Services",,Afterschool,,40.637754,-73.947976
CAMBA,Homebase,,"1958 Fulton Street
",Brooklyn,Brooklyn,NY,11233,Housing & Homelessness,,,,40.678673,-73.920181
CAMBA,Forsyth Satellite Academy,,198 Forsyth Street,New York,Manhattan,NY,10002,Other Children & Youth Services,,,,40.722499,-73.990599
CAMBA,Cascades High School,,"198 Forsyth Street
",New York,Manhattan,NY,10002,Other Children & Youth Services,,,,40.722499,-73.990599
CAMBA,Flagstone Family Center,,199 Amboy Street,Brooklyn,Brooklyn,NY,11212,"Housing & Homelessness, COMPASS/SONYC, Family Services",,Afterschool,,40.665594,-73.913477
CAMBA,Multi-service Program Office,,20 Snyder Avenue,Brooklyn,Brooklyn,NY,11226,"Housing & Homelessness, Immigrant Services, Family Services, Violence Prevention",,,,40.648486,-73.957422
CAMBA,Seaview Estates,,201 Hamilton Avenue,Staten Island,Staten Island,NY,10301,Housing & Homelessness,,,,40.645307,-74.08408
CAMBA,Gabriel House,,201 West 122nd Street,New York,Manhattan,NY,10027,Housing & Homelessness,,,,40.807303,-73.950108
CAMBA,Brooklyn Collegiate: A College Board School,,2021 Bergen Street,Brooklyn,Brooklyn,NY,11233,Other Children & Youth Services,,,,40.674247,-73.913255
CAMBA,James Bryant Homes,,2027 Madison Avenue,New York,Manhattan,NY,10035,Housing & Homelessness,,,,40.808042,-73.938791
CAMBA,Legacy Houses,,2081 Madison Avenue,New York,Manhattan,NY,10037,Housing & Homelessness,,,,40.809729,-73.937555
CAMBA,Homebase,,209 Bay Street,Staten Island,Staten Island,NY,10301,Housing & Homelessness,,,,40.637079,-74.075994
CAMBA,Multi-service Program Office,,21 Snyder Avenue,Brooklyn,Brooklyn,NY,11226,"Youth Employment Services, Family Services, LEAPS, Health & Fitness",,Afterschool,,40.648683,-73.957287
CAMBA,P.S./I.S. 323 - Chester Street Campus,,210 Chester Street,Brooklyn,Brooklyn,NY,11212,Other Children & Youth Services,,,,40.666583,-73.911105
CAMBA,King Gardens Seniors,,211 Riverdale Avenue,Brooklyn,Brooklyn,NY,11212,Housing & Homelessness,,,,40.661103,-73.908752
CAMBA,Hegeman,,212 Hegeman Avenue,Brooklyn,Brooklyn,NY,11212,Housing & Homelessness,,,,40.656635,-73.904041
CAMBA,Stuyvesant Cornerstone 1,,214 Stuyvesant Avenue,Brooklyn,Brooklyn,NY,11221,Cornerstone,,Afterschool,,40.687801,-73.933163
CAMBA,"Highbridge Terrace, Citywide Scattered Site",,220 West 167th Street,Bronx,Bronx,NY,10452,Housing & Homelessness,,,,40.838813,-73.928284
CAMBA,Multi-service Program Office,X,2244 Church Avenue,Brooklyn,Brooklyn,NY,11226,"Workforce Development, Immigrant Services, Health & Fitness, Housing & Homelessness",,,,40.650375,-73.956765
CAMBA,Teachers Preparatory High School Bristol Street Campus,,226 Bristol Street,Brooklyn,Brooklyn,NY,11212,Other Children & Youth Services,,,,40.6657,-73.911788
CAMBA,Highbridge Overlook,,240 West 167th Street,Bronx,Bronx,NY,10452,Housing & Homelessness,,,,40.839425,-73.928657
CAMBA,"Atlantic House Mens Shelter/The Gathering Place Drop-in Center
",,2402 Atlantic Avenue,Brooklyn,Brooklyn,NY,11233,Housing & Homelessness,,,,40.675864,-73.90525
CAMBA,Housing Legal Services,,241 37th Street,Brooklyn,Brooklyn,NY,11232,Housing & Homelessness,,,,40.655921,-74.00828
CAMBA,SONYC at Andries Hudde J.H.S. 240,,2500 Nostrand Avenue,Brooklyn,Brooklyn,NY,11210,COMPASS/SONYC,,Afterschool,,40.623761,-73.946489
CAMBA,Pink Houses Cornerstone,,2702 Linden Boulevard,Brooklyn,Brooklyn,NY,11208,Cornerstone,,Afterschool,,40.668911,-73.864598
CAMBA,CHV 202nd and 203rd Street,,271 E. 202nd Street and 266 E. 203rd Street,Bronx,Bronx,NY,10458,Housing & Homelessness,,,,40.872875,-73.884644
CAMBA,Breevort Cornerstone,,280 Ralph Avenue,Brooklyn,Brooklyn,NY,11233,Cornerstone,,Afterschool,,40.679939,-73.923314
CAMBA,Professional Pathways High School,,"3000 Avenue X
",Brooklyn,Brooklyn,NY,11235,Other Children & Youth Services,,,,40.593724,-73.936966
CAMBA,The Bedford,,3160 Webster Avenue,Bronx,Bronx,NY,10467,Housing & Homelessness,,,,40.872437,-73.875218
CAMBA,"Judith S. Kaye High School 
",,321 East 96th Street,New York,Manhattan,NY,10128,Other Children & Youth Services,,,,40.783531,-73.944925
CAMBA,Clarkson Estates (Vital Brooklyn Initiative Site L),,329 Clarkson Avenue,Brooklyn,Brooklyn,NY,11226,Housing & Homelessness,,,,40.655621,-73.949447
CAMBA,CAMBA Creative Kids at P.S. 139,,330 Rugby Road,Brooklyn,Brooklyn,NY,11226,"Summer Rising, COMPASS/SONYC",,Afterschool,,40.641082,-73.965581
CAMBA,Bergen Saratoga Apartments,,331 Saratoga Avenue,Brooklyn,Brooklyn,NY,11233,Housing & Homelessness,,,,40.674516,-73.916528
CAMBA,James Baldwin High School,,351 West 18th Street,New York,Manhattan,NY,10011,Other Children & Youth Services,,,,40.743057,-74.00233
CAMBA,Sheepshead Bay Cornerstone,,3679 Nostrand Avenue,Brooklyn,Brooklyn,NY,11229,Cornerstone,,Afterschool,,40.594442,-73.940438
CAMBA,The Kensington,,385 McDonald Avenue,Brooklyn,Brooklyn,NY,11218,"Housing & Homelessness, Family Services",,,,40.644559,-73.979484
CAMBA,Rising Up Men's Shelter,,39 Ainslie Street,Brooklyn,Brooklyn,NY,11211,Housing & Homelessness,,,,40.712961,-73.952698
CAMBA,Putnam Court,,40 Putnam Avenue,Brooklyn,Brooklyn,NY,11238,Housing & Homelessness,,,,40.682767,-73.960126
CAMBA,Van Dyke III,,405 Dumont Avenue,Brooklyn,Brooklyn,NY,11212,Housing & Homelessness,,,,40.66502,-73.904191
CAMBA,Community School at P.S. 198 Brooklyn Elementary,,4105 Farragut Road,Brooklyn,Brooklyn,NY,11203,Community School,,,,40.6374913,-73.9372764
CAMBA,Beacon 164 at P.S. 164 Caesar Rodney School,,4211 14th Avenue,Brooklyn,Brooklyn,NY,11219,Beacon,,Afterschool,,40.637235,-73.985968
CAMBA,Prospect Plaza,,430 Saratoga Avenue,Brooklyn,Brooklyn,NY,11233,Housing & Homelessness,,,,40.671227,-73.917137
CAMBA,Westwind Houses,,45 East 131st Street,New York,Manhattan,NY,10037,Housing & Homelessness,,,,40.809365,-73.937199
CAMBA,Park Avenue Residence,,4607 Park Avenue,Bronx,Bronx,NY,10458,Housing & Homelessness,,,,40.857631,-73.893715
CAMBA,Career Navigation Initiative (CNI) - East New York/Brownsville,,475 Fountain Avenue,Brooklyn,Brooklyn,NY,11208,"Workforce Development, Youth Employment Services",,,,40.668553,-73.87249
CAMBA,Cypress Hills Cornerstone,,475 Fountain Avenue,Brooklyn,Brooklyn,NY,11208,Cornerstone,,Afterschool,,40.668553,-73.87249
CAMBA,Gateway Elton Street Phase II-The Alan Epstein Apartments,,475 Locke Street,Brooklyn,Brooklyn,NY,11239,Housing & Homelessness,,,,40.656543,-73.875791
CAMBA,Gateway Elton Street Phase III,,475 Locke Street,Brooklyn,Brooklyn,NY,11239,Housing & Homelessness,,,,40.656543,-73.875791
CAMBA,Livonia Commons,,494 Georgia Avenue,Brooklyn,Brooklyn,NY,11207,Housing & Homelessness,,,,40.664237,-73.89598
CAMBA,CAMBA Elite at P.S. 3,,50 Jefferson Avenue,Brooklyn,Brooklyn,NY,11216,"Summer Rising, COMPASS/SONYC",,Afterschool,,40.682557,-73.955332
CAMBA,CAMBA Kids Quest at P.S. 91,,532 Albany Avenue,Brooklyn,Brooklyn,NY,11203,"Summer Rising, COMPASS/SONYC",,Afterschool,,40.661845,-73.940142
CAMBA,Housing Legal Services,,56 Bay Street,Staten Island,Staten Island,NY,10301,Housing & Homelessness,,,,40.640721,-74.075914
CAMBA,Heritage House,,56 East 131st Street,New York,Manhattan,NY,10037,Housing & Homelessness,,,,40.809197,-73.937385
CAMBA,CAMBA Gardens II,,560 Winthrop Street,Brooklyn,Brooklyn,NY,11203,Housing & Homelessness,,,,40.657377,-73.941155
CAMBA,Vincent Cyrus Plaza (57),,57 E. 128th Street,New York,Manhattan,NY,10035,Housing & Homelessness,,,,40.80743,-73.938257
CAMBA,Arverne View,,57-11 Shore Front Parkway,Arverne,Queens,NY,11692,Housing & Homelessness,,,,40.591595,-73.787668
CAMBA,CAMBA Family Solution-5,,"574 Livonia Ave 
",Brooklyn,Brooklyn,NY,11207,Family Services,,,,40.66442,-73.895378
CAMBA,"Opportunity House Men’s Shelter
",,59-65 Prince Street,Brooklyn,Brooklyn,NY,11201,Housing & Homelessness,,,,40.695627,-73.982302
CAMBA,CAMBA Kids Unlimited at P.S. 92,,601 Parkside Avenue,Brooklyn,Brooklyn,NY,11226,"Other Children & Youth Services, COMPASS/SONYC",,Afterschool,,40.656137,-73.954116
CAMBA,Van Dyke,,603 Mother Gaston Blvd,Brooklyn,Brooklyn,NY,11212,Housing & Homelessness,,,,40.66414,-73.905208
CAMBA,CAMBA Kids Unite at P.S. 170,,619 72nd Street,Brooklyn,Brooklyn,NY,11209,"Other Children & Youth Services, COMPASS/SONYC",,Afterschool,,40.630202,-74.01885
CAMBA,Apex Place,,62-11 108th Street; 108-75 62nd Drive,Forest Hills,Queens,NY,11375,Housing & Homelessness,,,,40.736668,-73.851314
CAMBA,YABC at South Shore Educational Complex,,6565 Flatlands Avenue,Brooklyn,Brooklyn,NY,11236,Other Children & Youth Services,,,,40.63326,-73.917133
CAMBA,"Brooklyn Bridge Academy
",,"6565 Flatlands Avenue
",Brooklyn,Brooklyn,NY,11236,Other Children & Youth Services,,,,40.63326,-73.917133
CAMBA,CAMBA Gardens I,,690-738 Albany Avenue,Brooklyn,Brooklyn,NY,11203,Housing & Homelessness,,,,40.657273,-73.93997
CAMBA,SONYC at Walt Whitman M.S. 246,,72 Veronica Place,Brooklyn,Brooklyn,NY,11226,COMPASS/SONYC,,Afterschool,,40.648407,-73.95297
CAMBA,Boulevard Cornerstone,,726 Stanley Avenue,Brooklyn,Brooklyn,NY,11207,Cornerstone,,Afterschool,,40.660142,-73.881621
CAMBA,Vincent Cypress Plaza (73),,73 East 128th Street,New York,Manhattan,NY,10035,Housing & Homelessness,,,,40.807362,-73.938117
CAMBA,The Rockaway,,730 Rockaway Avenue,Brooklyn,Brooklyn,NY,11212,Housing & Homelessness,,,,40.66192,-73.908923
CAMBA,East New York Beacon 166 at The Van Siclen Community Middle School,,800 Van Siclen Avenue,Brooklyn,Brooklyn,NY,11207,Beacon,,Afterschool,,40.659885,-73.885446
CAMBA,T Building,,82-41 Parsons Blvd,Jamaica,Queens,NY,11432,Housing & Homelessness,,,,40.71757,-73.807614
CAMBA,"Brooklyn Academy High School
",,832 Marcy Avenue,Brooklyn,Brooklyn,NY,11216,Other Children & Youth Services,,,,40.684718,-73.947272
CAMBA,Independence High School,,850 10th Avenue,New York,Manhattan,NY,10019,Other Children & Youth Services,,,,40.768034,-73.989124
CAMBA,Myrtle Avenue Apartments,,854 Myrtle Avenue,Brooklyn,Brooklyn,NY,11206,Housing & Homelessness,,,,40.69529,-73.947942
CAMBA,Kings Inn,,87-02 23rd Avenue,East Elmhurst,Queens,NY,11369,Housing & Homelessness,,,,40.76718,-73.882511
CAMBA,Austin 147,,880 E. 147th Street,Bronx,Bronx,NY,10455,Housing & Homelessness,,,,40.810278,-73.904412
CAMBA,Penn-Wortman Cornerstone,,895 Pennsylvania Avenue,Brooklyn,Brooklyn,NY,11207,Cornerstone,,Afterschool,,40.656154,-73.888038
CAMBA,Howard Cornerstone,,90 Watkins Street,Brooklyn,Brooklyn,NY,11212,Cornerstone,,Afterschool,,40.670879,-73.908581
CAMBA,The Landing,,94-00 Ditmars Boulevard,East Elmhurst,Queens,NY,11369,Housing & Homelessness,,,,40.769202,-73.876096
CAMBA,Multi-service Program Office,,955 Flatbush Ave,Brooklyn,Brooklyn,NY,11226,"Workforce Development, Other Children & Youth Services, Adult Literacy, Violence Prevention",,,,40.648293,-73.95808
CAMBA,97 Crooke/Reverand Dan Ramm,,97 Crooke Avenue,Brooklyn,Brooklyn,NY,11226,Housing & Homelessness,,,,40.653101,-73.96242
CAMBA,Community School at P.S. 306 Ethan Allen Elementary,,970 Vermont Street,Brooklyn,Brooklyn,NY,11207,Community School,,,,40.655462,-73.886365
CAMBA,YABC at Franklin K. Lane High School,,999 Jamaica Avenue,Brooklyn,Brooklyn,NY,11208,Other Children & Youth Services,,,,40.692641,-73.868911
Center for Family Life in Sunset Park,Sunset Park High School,,153 35th St.,Brooklyn,Brooklyn,NY,11232,"21st Century Community Learning Center, Youth Employment Services, Arts & Culture, Workforce Development",,Afterschool,,40.655463,-74.004566
Center for Family Life in Sunset Park,MS 936,,270 - 59th Street,Brooklyn,Brooklyn,NY,11220,Family Services,,,,40.642793,-74.020287
Center for Family Life in Sunset Park,PS 939,,270 - 59th Street,Brooklyn,Brooklyn,NY,11220,"LEAPS, Family Services",,Afterschool,,40.642793,-74.020287
Center for Family Life in Sunset Park,PS 1,,309 47th St.,Brooklyn,Brooklyn,NY,11220,"Beacon, Summer Rising, Family Services",,Afterschool,,40.649099,-74.011834
Center for Family Life in Sunset Park,PS 503/PS 506,,333 60th St.,Brooklyn,Brooklyn,NY,11220,"Beacon, Community School, LEAPS, Summer Rising, Food Access, Family Services",,Afterschool,,40.641685,-74.019602
Center for Family Life in Sunset Park,R.I.S.E U.P Family Enrichment Center,,341 39th Street,Brooklyn,Brooklyn,NY,11232,Civic Engagement & Community Organizing,,,,40.653336,-74.007103
Center for Family Life in Sunset Park,MS 136/ MS 821,,4004 4th Ave.,Brooklyn,Brooklyn,NY,11232,"21st Century Community Learning Center, COMPASS/SONYC, Summer Rising, Arts & Culture, Family Services",,Afterschool,,40.651937,-74.00727
Center for Family Life in Sunset Park,PS 516,,4222 4th Ave.,Brooklyn,Brooklyn,NY,11232,"21st Century Community Learning Center, Family Services",,Afterschool,,40.650674,-74.008514
Center for Family Life in Sunset Park,PS 169,,4305 7th Ave.,Brooklyn,Brooklyn,NY,11232,"COMPASS/SONYC, Summer Rising, Family Services",,Afterschool,,40.646039,-74.001936
Center for Family Life in Sunset Park,Main Center,X,443 39th St.,Brooklyn,Brooklyn,NY,11232,"Adult Literacy, Food Access, Family Services, Immigrant Services, Workforce Development",,,,40.651994,-74.004866
Center for Family Life in Sunset Park,PS 94,,5010 6th Avenue,Brooklyn,Brooklyn,NY,11220,"COMPASS/SONYC, Summer Rising",,Afterschool,,40.643622,-74.008603
Center for Family Life in Sunset Park,PS 971,,6214 4th Ave.,Brooklyn,Brooklyn,NY,11220,"COMPASS/SONYC, Summer Rising, Family Services",,Afterschool,,40.639475,-74.020163
Chinese-American Planning Council,CPC Home Attendant Program,,1 York Street,New York,Manhattan,NY,10013,Health & Fitness,,,,40.721257,-74.005463
Chinese-American Planning Council,Early Childhood Center - Jacob Riis ,,108 Avenue D,New York,Manhattan,NY,10009,Child Care Center,Early Childhood Education,,,40.723379,-73.975694
Chinese-American Planning Council,Early Childhood Center - Garment Industry and School-Age Child Care - Chrystie Street,,115 Chrystie Street,New York,Manhattan,NY,10002,Child Care Center,Early Childhood Education,,,40.718647,-73.993774
Chinese-American Planning Council,School-Age Child Care at PS 2,,"122 Henry Street, room 109",New York,Manhattan,NY,10002,"COMPASS/SONYC, Summer Rising",,Afterschool,,40.713175,-73.991351
Chinese-American Planning Council,Early Childhood Center - Chung Pak ,,125 Walker Street,New York,Manhattan,NY,10013,Child Care Center,Early Childhood Education,,,40.717376,-73.999876
Chinese-American Planning Council,Queens Community Center,,133-14 41st Ave,Flushing,Queens,NY,11355,"Child Care Center, Youth Employment Services, Other Children & Youth Services, Older Adult Center, Other Older Adult Services, Civic Engagement & Community Organizing, Family Services, Immigrant Services, Workforce Development",Early Childhood Education,,Older Adults,40.757259,-73.831417
Chinese-American Planning Council,Early Childhood Center - Lois C. Lee ,,"133-14 41st Ave, 3rd FL",Flushing,Queens,NY,11355,Child Care Center,Early Childhood Education,,,40.757259,-73.831417
Chinese-American Planning Council,Nan Shan Older Adult Center,,133-14 41st Ave.,Flushing,Queens,NY,11355,"Older Adult Center, Other Older Adult Services",,,Older Adults,40.757259,-73.831417
Chinese-American Planning Council,School-Age Child Care at PS 20,,142-30 Barclay Avenue,Flushing,Queens,NY,11355,"COMPASS/SONYC, Summer Rising",,Afterschool,,40.758693,-73.824387
Chinese-American Planning Council,School-Age Child Care at PS 130,,143 Baxter Street,New York,Manhattan,NY,10013,"COMPASS/SONYC, Summer Rising",,Afterschool,,40.718747,-73.998446
Chinese-American Planning Council,Flushing International High School,,144-80 Barclay Ave.,Flushing,Queens,NY,11355,Youth Employment Services,,,,40.760417,-73.818015
Chinese-American Planning Council,New Utrecht High School,,1601 80th Street,Brooklyn,Brooklyn,NY,11214,"COMPASS/SONYC, Other Children & Youth Services",,Afterschool,,40.613239,-74.003134
Chinese-American Planning Council,Open Door Older Adult Center,,168 Grand Street,New York,Manhattan,NY,10013,"Older Adult Center, Other Older Adult Services",,,Older Adults,40.719768,-73.998193
Chinese-American Planning Council,Little Star Early Childcare Center ,,178 Broome Street,New York,Manhattan,NY,10002,Child Care Center,Early Childhood Education,,,40.717015,-73.986287
Chinese-American Planning Council,School-Age Child Care at PS 153,,1970 Homecrest Avenue,Brooklyn,Brooklyn,NY,11229,"COMPASS/SONYC, Summer Rising",,Afterschool,,40.601192,-73.959901
Chinese-American Planning Council,Lafayette HS Education Campus,,2630 Benson Ave,Brooklyn,Brooklyn,NY,11214,Youth Employment Services,,,,40.594,-73.985749
Chinese-American Planning Council,Manhattan International High School,,317 E 67th St,New York,Manhattan,NY,10065,Youth Employment Services,,,,40.765343,-73.95974
Chinese-American Planning Council,Queens High School for Language Studies,,35-01 Union Street,Flushing,Queens,NY,11354,"Other Children & Youth Services, Youth Employment Services",,,,40.764889,-73.827767
Chinese-American Planning Council,High School for Dual Language & Asian Studies,,350 Grand Street,New York,Manhattan,NY,10002,"COMPASS/SONYC, Other Children & Youth Services",,Afterschool,,40.717356,-73.989596
Chinese-American Planning Council,School-Age Child Care at PS 124,,40 Division Street,New York,Manhattan,NY,10002,"COMPASS/SONYC, Summer Rising",,Afterschool,,40.714339,-73.995531
Chinese-American Planning Council,Brooklyn Community Center and Brooklyn Older Adult Center ,,4101 8th Avenue,Brooklyn,Brooklyn,NY,11232,"Older Adult Center, Other Older Adult Services, Food Access, Family Services, Immigrant Services, Youth Employment Services, Housing & Homelessness",,,Older Adults,40.645982,-73.998454
Chinese-American Planning Council,Education and Career Services,,45 Suffolk Street,New York,Manhattan,NY,10002,"Adult Literacy, Other Children & Youth Services, Youth Employment Services, Workforce Development",,,,40.718658,-73.986472
Chinese-American Planning Council,Manhattan Community Center at CPC One,X,45 Suffolk Street,New York,Manhattan,NY,10002,"Mental Health & Substance Abuse, Immigrant Services, Health & Fitness, Family Services, Civic Engagement & Community Organizing, Adult Literacy, Workforce Development, Youth Employment Services",,,,40.718658,-73.986472
Chinese-American Planning Council,Beacon @ IS 220,,4812 9th Avenue,Brooklyn,Brooklyn,NY,11220,Beacon,,Afterschool,,40.640781,-74.000809
Chinese-American Planning Council,Brooklyn International High School,,49 Flatbush Avenue Extension,Brooklyn,Brooklyn,NY,11201,Youth Employment Services,,,,40.687282,-73.979634
Chinese-American Planning Council,Wellness at Hong Ning Housing for the Elderly,,50 Norfolk Street,New York,Manhattan,NY,10002,Other Older Adult Services,,,Older Adults,40.716697,-73.988082
Chinese-American Planning Council,Community School @ PS 94,,5010 6th Ave,Brooklyn,Brooklyn,NY,11220,Community School,,,,40.643622,-74.008603
Chinese-American Planning Council,NY Chinatown Older Adult Center,,55 Chrystie Street,New York,Manhattan,NY,10002,"Older Adult Center, Other Older Adult Services",,,Older Adults,40.716542,-73.994848
Chinese-American Planning Council,FDR High School,,5800 20th Ave,Brooklyn,Brooklyn,NY,11204,Youth Employment Services,,,,40.62076,-73.981712
Chinese-American Planning Council,Project Reach,,5800 20th Ave,New York,Brooklyn,NY,11204,Other Children & Youth Services,,,,40.62076,-73.981712
Chinese-American Planning Council,Wellness at 64 Norfolk,,64 Norfolk Street ,New York,Manhattan,NY,10002,Other Older Adult Services,,,Older Adults,40.717197,-73.987869
Chinese-American Planning Council,Fort Hamilton High School,,8301 Shore Rd.,Brooklyn,Brooklyn,NY,11209,Youth Employment Services,,,,40.627244,-74.039739
Cypress Hills LDC,Cypress Hills Child Care Corporation Child Care Center,,108 Pine St.,Brooklyn,Brooklyn,NY,11208,Child Care Center,Early Childhood Education,,,40.683985,-73.873481
Cypress Hills LDC,After School at PS 345,,111 Berriman St.,Brooklyn,Brooklyn,NY,11208,21st Century Community Learning Center,,Afterschool,,40.676188,-73.880225
Cypress Hills LDC,PS 290 After School Program,,135 Schenck Avenue,Brooklyn,Brooklyn,NY,11207,21st Century Community Learning Center,,Afterschool,,40.678137,-73.889691
Cypress Hills LDC,Cypress Senior Housing,,137 Jamaica Avenue,Brooklyn,Brooklyn,NY,11207,Other Older Adult Services,,,Older Adults,40.679483,-73.895048
Cypress Hills LDC,Afterschool (PS 108),,200 Linwood Street,Brooklyn,Brooklyn,NY,11208,"Community School, Other Children & Youth Services",,,,40.681306,-73.884187
Cypress Hills LDC,Community School (PS 89),,265 Warwick Street,Brooklyn,Brooklyn,NY,11207,"Summer Rising, COMPASS/SONYC, 21st Century Community Learning Center",,Afterschool,,40.677694,-73.886798
Cypress Hills LDC,East New York Community Center,X,276 Chestnut Street,Brooklyn,Brooklyn,NY,11208,"Youth Employment Services, Other Children & Youth Services, Other Older Adult Services, Food Access, Workforce Development, Health & Fitness, Immigrant Services, Adult Literacy, Arts & Culture, Civic Engagement & Community Organizing",,,Older Adults,40.681157,-73.875113
Cypress Hills LDC,Beacon at PS 214,,2944 Pitkin Avenue,Brooklyn,Brooklyn,NY,11208,Beacon,,Afterschool,,40.676332,-73.863063
Cypress Hills LDC,Community Development and Organizing Office,,2966 Fulton St.,Brooklyn,Brooklyn,NY,11208,"Civic Engagement & Community Organizing, Housing & Homelessness",,,,40.679668,-73.88521
Cypress Hills LDC,Housing Counseling Office,,3214 Fulton Street,Brooklyn,Brooklyn,NY,11208,Housing & Homelessness,,,,40.682363,-73.876351
Cypress Hills LDC,Cypress Hills Child Care Corporation,,3295 Fulton St.,Brooklyn,Brooklyn,NY,11208,Head Start,Early Childhood Education,,,40.683337,-73.87371
Cypress Hills LDC,"Afterschool Programs at Liberty Avenue Middle School, VISTA Middle School and Achievement First Charter School",,350 Linwood St,Brooklyn,Brooklyn,NY,11208,"COMPASS/SONYC, Summer Rising",,Afterschool,,40.677147,-73.883619
Cypress Hills LDC,Beacon at JHS 218,,370 Fountain Ave,Brooklyn,Brooklyn,NY,11208,Beacon,,Afterschool,,40.670693,-73.874447
Cypress Hills LDC,Student Success Center @Thomas Jefferson High School Campus,,400 Pennsylvania Avenue,Brooklyn,Brooklyn,NY,11207,Other Children & Youth Services,,,,40.666917,-73.894809
Cypress Hills LDC,Community Learning Center at IS 171 & Highland Park School,,528 Ridgewood Ave.,Brooklyn,Brooklyn,NY,11208,"21st Century Community Learning Center, COMPASS/SONYC",,Afterschool,,40.686051,-73.869469
Cypress Hills LDC,Academy of Excellence at PS 677,,605 Shepherd Ave.,Brooklyn,Brooklyn,NY,11208,"COMPASS/SONYC, Summer Rising",,Afterschool,,40.66949,-73.879458
Cypress Hills LDC,United Community Center,,613 New Lots Ave.,Brooklyn,Brooklyn,NY,11207,"Child Care Center, Other Children & Youth Services, Other Older Adult Services, Civic Engagement & Community Organizing, Food Access",Early Childhood Education,,Older Adults,40.664821,-73.886623
Cypress Hills LDC,Administrative Office,,625 Jamaica Ave.,Brooklyn,Brooklyn,NY,11208,,,,,40.686357,-73.881039
Cypress Hills LDC,After School at PS 65,,700 Jamaica Ave.,Brooklyn,Brooklyn,NY,11208,"COMPASS/SONYC, Summer Rising",,Afterschool,,40.687187,-73.878204
Cypress Hills LDC,Kids Clubhouse After School (PS 7),,858 Jamaica Ave.,Brooklyn,Brooklyn,NY,11208,"COMPASS/SONYC, Summer Rising",,Afterschool,,40.689602,-73.872991
Cypress Hills LDC,Student Success Center @ Franklin K. Lane Campus,,999 Jamaica Ave.,Brooklyn,Brooklyn,NY,11208,"Community School, Other Children & Youth Services",,,,40.692641,-73.868911
East Side House,Arturo Schomburg Satellite,,1010 Rev James A Polite Ave,The Bronx,Bronx,NY,10459,"Workforce Development, Community School",,,,40.823467,-73.898763
East Side House,Bronx Regional High School Campus ,,1010 Rev James A Polite Ave,The Bronx,Bronx,NY,10459,"Workforce Development, Community School",,,,40.823467,-73.898763
East Side House,MS 337 – The School for Inquiry and Social Justice,,1025 Morrison Avenue,Bronx,Bronx,NY,10472,COMPASS/SONYC,,Afterschool,,40.825015,-73.873769
East Side House,Urban Scholars Mathematics Institute,,1180 Tinton Ave.,Bronx,Bronx,NY,10456,"COMPASS/SONYC, Community School",,Afterschool,,40.828723,-73.900453
East Side House,Urban Scholars Community School,,1180 Tinton Avenue,Bronx,Bronx,NY,10456,COMPASS/SONYC,,Afterschool,,40.828723,-73.900453
East Side House,High School of World Cultures,,1300 Boynton Avenue,Bronx,Bronx,NY,10472,Community School,,,,40.831823,-73.878703
East Side House,Gotham Collaborative High School,,1980 Lafayette Ave,Bronx,Bronx,NY,10473,"Community School, Workforce Development",,,,40.822161,-73.855875
East Side House,Winifred Wheeler Nursery,,200 Alexander Ave,Bronx,Bronx,NY,10454,Head Start,Early Childhood Education,,,40.808904,-73.92571
East Side House,Jobs Plus,,201 St Ann's Ave.,Bronx,Bronx,NY,10454,"Adult Literacy, Workforce Development",,,,40.805955,-73.91854
East Side House,Mill Brook Community Center,,201 St Ann's Ave.,Bronx,Bronx,NY,10454,"COMPASS/SONYC, Cornerstone, Head Start",Early Childhood Education,Afterschool,,40.805955,-73.91854
East Side House,P.S. 67 Mohegan School,,2024 Mohegan Avenue,Bronx,Bronx,NY,10460,COMPASS/SONYC,,Afterschool,,40.84401,-73.884537
East Side House,Mitchel Community Center ,,210 Alexander Ave.,Bronx,Bronx,NY,10454,"Cornerstone, COMPASS/SONYC",,Afterschool,,40.809224,-73.925528
East Side House,Borinquen Court Senior Center (with Mitchel Senior Center),,285 East 138th Street,Bronx,Bronx,NY,10454,Older Adult Center,,,Older Adults,40.810776,-73.926395
East Side House,Lehman YABC,,3000 East Tremont Ave.,Bronx,Bronx,NY,10461,Workforce Development,,,,40.840605,-73.838772
East Side House,Patterson Senior Center,,308 E 145th St.,Bronx,Bronx,NY,10451,"Cornerstone, COMPASS/SONYC",,Afterschool,,40.815167,-73.922475
East Side House,"Smith Campus (BHHS, BDCA, YABC)",,333 E 151st St.,Bronx,Bronx,NY,10451,"Workforce Development, Community School",,,,40.818289,-73.919661
East Side House,Administrative Building,X,337 Alexander Ave.,Bronx,Bronx,NY,10454,"Workforce Development, Adult Literacy",,,,40.812304,-73.923723
East Side House,Patterson Community Center,,340 Morris Ave.,Bronx,Bronx,NY,10451,"COMPASS/SONYC, Cornerstone",,Afterschool,,40.813594,-73.924903
East Side House,Melrose Senior Center,,372 E 152nd St.,Bronx,Bronx,NY,10455,Older Adult Center,,,Older Adults,40.81835,-73.917765
East Side House,Mott Haven Community Center,,375 E 143rd St.,Bronx,Bronx,NY,10454,Head Start,Early Childhood Education,,,40.812757,-73.92132
East Side House,PS 18- Park Terrace,,3761 10th Avenue,New York,Manhattan,NY,10034,COMPASS/SONYC,,Afterschool,,40.860955,-73.921242
East Side House,Children's Pride,,414 Morris Ave.,Bronx,Bronx,NY,10451,Head Start,Early Childhood Education,,,40.81548,-73.923467
East Side House,Mott Haven Community High School,,455 Southern Blvd,Bronx,Bronx,NY,10455,"Community School, Workforce Development",,,,40.81055,-73.907243
East Side House,Mott Haven Educational Campus,,455 Southern Blvd.,Bronx,Bronx,NY,10455,Other Children & Youth Services,,,,40.81055,-73.907243
East Side House,PS 179 Campus,,468 East 140th St.,Bronx,Bronx,NY,10454,"COMPASS/SONYC, Community School",,Afterschool,,40.809407,-73.919873
East Side House,George Washington Campus,,549 Audubon Ave.,New York,Manhattan,NY,10040,Workforce Development,,,,40.855809,-73.926627
East Side House,George Washington High School YABC,,549 Audubon Ave.,New York,Manhattan,NY,10040,Workforce Development,,,,40.855809,-73.926627
East Side House,Urban Institute Of Mathematics,,650 Hollywood Ave.,Bronx,Bronx,NY,10465,COMPASS/SONYC,,Afterschool,,40.827055,-73.818648
East Side House,Mott Hall Community School,,650 Hollywood Avenue,Bronx,Bronx,NY,10465,Community School,,,,40.827055,-73.818648
East Side House,Honorable Eugene Oliver Education Center,,705 Concourse Village West,Bronx,Bronx,NY,10451,Head Start,Early Childhood Education,,,40.822545,-73.924103
East Side House,Accion Academy,,977 Fox St.,Bronx,Bronx,NY,10459,COMPASS/SONYC,,Afterschool,,40.822092,-73.89404
Educational Alliance,PS 142,,100 Attorney Street,New York,Manhattan,NY,10002,"LEAPS, COMPASS/SONYC, Other Children & Youth Services",,Afterschool,,40.718515,-73.984218
Educational Alliance,New Country Day Camp (K-6),,1131 Manor Road,Staten Island,Staten Island,NY,10314,Other Children & Youth Services,,,,40.598769,-74.122672
Educational Alliance,PS/MS 140,,123 Ridge St.,New York,Manhattan,NY,10002,"Community School, COMPASS/SONYC, Other Children & Youth Services",,Afterschool,,40.719137,-73.983284
Educational Alliance,Weinberg Center for Balanced Living,,197 E Broadway,New York,Manhattan,NY,10002,"Health & Fitness, Arts & Culture, Older Adult Center, Other Older Adult Services",,,Older Adults,40.714093,-73.988413
Educational Alliance,Manny Cantor Center,X,197 East Broadway,New York,Manhattan,NY,10002,"Child Care Center, Head Start, Workforce Development, Immigrant Services, Health & Fitness, Family Services, Food Access, Civic Engagement & Community Organizing, Arts & Culture, Adult Literacy, Older Adult Center, NORC, Other Older Adult Services",Early Childhood Education,,Older Adults,40.714093,-73.988413
Educational Alliance,Center for Recovery and Wellness,,25-29 Avenue D,New York,Manhattan,NY,10009,"Other Children & Youth Services, Workforce Development, Violence Prevention, Mental Health & Substance Abuse, Housing & Homelessness, Family Services, Food Access",,,,40.721028,-73.978158
Educational Alliance,Project ORE,,331 E 12th St.,New York,Manhattan,NY,10003,"Older Adult Center, Food Access, Mental Health & Substance Abuse",,,Older Adults,40.730493,-73.984385
Educational Alliance,Sirovich Center for Balanced Living,,331 E 12th St.,New York,Manhattan,NY,10003,"Health & Fitness, Arts & Culture, Older Adult Center, Other Older Adult Services",,,Older Adults,40.730493,-73.984385
Educational Alliance,14th Street Y,,334 E 14th St.,New York,Manhattan,NY,10003,"Child Care Center, Arts & Culture, Health & Fitness, Food Access",Early Childhood Education,,,40.731618,-73.983603
Educational Alliance,PS/MS 188 Extended Learning Day Programs,,442 East Houston St.,New York,Manhattan,NY,10002,"COMPASS/SONYC, Other Children & Youth Services",,Afterschool,,40.719971,-73.979481
Educational Alliance,Co-Op village NORC,,465 Grand St.,New York,Manhattan,NY,10002,"NORC, Older Adult Center, Health & Fitness",,,Older Adults,40.71483,-73.98372
Educational Alliance,Tompkins Square Middle School,,600 E 6th St.,New York,Manhattan,NY,10009,"Community School, LEAPS",,Afterschool,,40.724241,-73.981388
Educational Alliance,PS 64,,600 E6th St.,New York,Manhattan,NY,10009,"Community School, LEAPS, Other Children & Youth Services",,Afterschool,,40.724241,-73.981388
Goddard Riverside/Stanley Isaacs,Early Childhood Education,,114 West 91st Street,New York,Manhattan,NY,10024,Child Care Center,Early Childhood Education,,,40.789868,-73.97068
Goddard Riverside/Stanley Isaacs,Corner House,,131 Edgecombe Ave,New York,Manhattan,NY,10030,Housing & Homelessness,,,,40.821148,-73.945207
Goddard Riverside/Stanley Isaacs,Taft Senior Center (Stanley M. Isaacs),,1365 5th Avenue,New York,Manhattan,NY,10029,"NORC, Older Adult Center",,,Older Adults,40.798707,-73.947006
Goddard Riverside/Stanley Isaacs,Resource Center,,140 West 140th Street,New York,Manhattan,NY,10030,Family Services,,,,40.817993,-73.940542
Goddard Riverside/Stanley Isaacs,West 140th Street,,140 West 140th Street,New York,Manhattan,NY,10030,Housing & Homelessness,,,,40.817993,-73.940542
Goddard Riverside/Stanley Isaacs,Manhattanville Resource Center,,1430 Amsterdam Avenue,New York,Manhattan,NY,10027,Family Services,,,,40.817051,-73.955049
Goddard Riverside/Stanley Isaacs,After school at Beacon,,154 West 93rd Street,New York,Manhattan,NY,10025,Beacon,,Afterschool,,40.791602,-73.970854
Goddard Riverside/Stanley Isaacs,Summer Camps,,154 West 93rd Street,New York,Manhattan,NY,10025,Summer Rising,,,,40.791602,-73.970854
Goddard Riverside/Stanley Isaacs,Capitol Hall,,166 West 87th Street,New York,Manhattan,NY,10024,Housing & Homelessness,,,,40.788017,-73.973948
Goddard Riverside/Stanley Isaacs,PS 198 Beacon #1 (Stanley M. Isaacs),,1700 3rd Ave,New York,Manhattan,NY,10128,"Beacon, Summer Rising",,Afterschool,,40.785053,-73.949694
Goddard Riverside/Stanley Isaacs,Isaacs Programs-Youth (Stanley M. Isaacs),,1780 First Avenue,New York,Manhattan,NY,10128,"Other Children & Youth Services, Workforce Development, Youth Employment Services",,,,40.780825,-73.945878
Goddard Riverside/Stanley Isaacs,Senate Residence,,206 West 92nd Street,New York,Manhattan,NY,10025,Housing & Homelessness,,,,40.791725,-73.972989
Goddard Riverside/Stanley Isaacs,Intensive Mobile Treatment ,,2250 3rd Avenue,New York,Manhattan,NY,10035,Mental Health & Substance Abuse,,,,40.802067,-73.937238
Goddard Riverside/Stanley Isaacs,Stephen Russo House,,235 West 107th Street,New York,Manhattan,NY,10025,Housing & Homelessness,,,,40.801829,-73.966667
Goddard Riverside/Stanley Isaacs,Early Childhood Education,,243 West 64th Street,New York,Manhattan,NY,10023,Child Care Center,Early Childhood Education,,,40.774408,-73.9868
Goddard Riverside/Stanley Isaacs,After school at Lincoln Square,,250 West 65th Street,New York,Manhattan,NY,10023,Other Children & Youth Services,,,,40.774928,-73.987123
Goddard Riverside/Stanley Isaacs,Lincoln Square NORC,,250 West 65th Street,New York,Manhattan,NY,10023,NORC,,,Older Adults,40.774928,-73.987123
Goddard Riverside/Stanley Isaacs,Older Adult Center Lincoln Square,,250 West 65th Street,New York,Manhattan,NY,10023,Older Adult Center,,,Older Adults,40.774928,-73.987123
Goddard Riverside/Stanley Isaacs,RISE Youth Center/COFA,,250 West 65th Street,New York,Manhattan,NY,10023,Other Children & Youth Services,,,,40.774928,-73.987123
Goddard Riverside/Stanley Isaacs,Star Learning Center,,"26 West 84th Street, 2nd fl",New York,Manhattan,NY,10024,Other Children & Youth Services,,,,40.784431,-73.971618
Goddard Riverside/Stanley Isaacs,TOP Clubhouse,,263 West 86th Street,New York,Manhattan,NY,10024,Mental Health & Substance Abuse,,,,40.7888,-73.977266
Goddard Riverside/Stanley Isaacs,The Monument,,316 West 95th Street,New York,Manhattan,NY,10025,Housing & Homelessness,,,,40.794952,-73.974832
Goddard Riverside/Stanley Isaacs,#DegreesNYC,,352 West 110th Street,New York,Manhattan,NY,10025,Civic Engagement & Community Organizing,,,,40.801147,-73.95917
Goddard Riverside/Stanley Isaacs,Options Institute / Options Center,,352 West 110th Street,New York,Manhattan,NY,10025,Other Children & Youth Services,,,,40.801147,-73.95917
Goddard Riverside/Stanley Isaacs,MS 224 Beacon #2 (Stanley M. Isaacs),,410 East 100th Street,New York,Manhattan,NY,10029,"Beacon, Summer Rising",,Afterschool,,40.785292,-73.942158
Goddard Riverside/Stanley Isaacs,"Isaacs Programs-senior, HDM (Stanley M. Isaacs)",,415 East 93rd Street,New York,Manhattan,NY,10128,"Other Older Adult Services, Food Access, NORC, Older Adult Center",,,Older Adults,40.781214,-73.945277
Goddard Riverside/Stanley Isaacs,Law Project,,51 West 109th Street,New York,Manhattan,NY,10025,Housing & Homelessness,,,,40.800759,-73.960188
Goddard Riverside/Stanley Isaacs,Advocacy & Community Organizing,X,593 Columbus Ave,New York,Manhattan,NY,10024,Civic Engagement & Community Organizing,,,,40.787796,-73.970918
Goddard Riverside/Stanley Isaacs,Older Adult Center Goddard Riverside,,593 Columbus Ave,New York,Manhattan,NY,10024,Older Adult Center,,,Older Adults,40.787796,-73.970918
Goddard Riverside/Stanley Isaacs,Phelps House,,595 Columbus Ave,New York,Manhattan,NY,10024,Other Older Adult Services,,,Older Adults,40.787998,-73.970762
Goddard Riverside/Stanley Isaacs,Green Keepers; Top Opportunities,,"61 West 87th Street, Basement",New York,Manhattan,NY,10024,Workforce Development,,,,40.787076,-73.971206
Goddard Riverside/Stanley Isaacs,Community Arts,,647 Columbus Ave,New York,Manhattan,NY,10025,Arts & Culture,,,,40.789907,-73.969412
Goddard Riverside/Stanley Isaacs,West Side NORC,,689 Columbus Ave,New York,Manhattan,NY,10025,NORC,,,Older Adults,40.791082,-73.968536
Goddard Riverside/Stanley Isaacs,The Baxter,,81-30 Baxter Ave,Queens,Queens,NY,11373,Housing & Homelessness,,,,40.745857,-73.883663
Goddard Riverside/Stanley Isaacs,Homeless Outreach- downtown,,84 Bowery,New York,Manhattan,NY,10013,Housing & Homelessness,,,,40.717074,-73.995781
Goddard Riverside/Stanley Isaacs,"Homeless Outreach- uptown, weekend/overnight",,965 Columbus Ave,New York,Manhattan,NY,10025,Housing & Homelessness,,,,40.800074,-73.962016
Goddard Riverside/Stanley Isaacs,ACT Team,,995 Columbus Avenue,New York,Manhattan,NY,10025,Mental Health & Substance Abuse,,,,40.801008,-73.961363
Goddard Riverside/Stanley Isaacs,Learning to work,,Edward A. Reynolds Transfer HS 105 East 106th Street,New York,Manhattan,NY,10029,Other Children & Youth Services,,,,40.79284,-73.947257
Grand Street Settlement,Chinese-American Planning Council,,108 Avenue D,New York,Manhattan,NY,10009,Head Start,Early Childhood Education,,,40.723379,-73.975694
Grand Street Settlement,Nest+m,,111 Columbia Street,New York,Manhattan,NY,10002,COMPASS/SONYC,,Afterschool,,40.719148,-73.979372
Grand Street Settlement,Dolphin Day Care,,1301 Gates Avenue,Brooklyn,Brooklyn,NY,11221,Head Start,Early Childhood Education,,,40.694493,-73.917495
Grand Street Settlement,Big Miracle Corporation; Learning Together with Love,,1365 Putnam Avenue,Brooklyn,Brooklyn,NY,11221,Head Start,Early Childhood Education,,,40.694453,-73.912784
Grand Street Settlement,Tanias Dream of Love,,1385 Putnam Avenue,Brooklyn,Brooklyn,NY,11221,Head Start,Early Childhood Education,,,40.694929,-73.91231
Grand Street Settlement,Beacon Community Center,,145 Stanton Street,New York,Manhattan,NY,10002,Beacon,,Afterschool,,40.720544,-73.98578
Grand Street Settlement,Traditional Day Care,,1469 Broadway,Brooklyn,Brooklyn,NY,11221,Head Start,Early Childhood Education,,,40.687747,-73.918702
Grand Street Settlement,Shining Starz Day Care,,167 Arlington Avenue,Brooklyn,Brooklyn,NY,11207,Head Start,Early Childhood Education,,,40.68037,-73.888716
Grand Street Settlement,Essex Crossing Best Buy Teen Tech Center,,168 Broome Street,New York,Manhattan,NY,10002,Other Children & Youth Services,,,,40.716824,-73.9854
Grand Street Settlement,Essex Crossing Community Center,,175 Delancey Street,New York,Manhattan,NY,10002,Other Older Adult Services,,,Older Adults,40.717174,-73.985448
Grand Street Settlement,Atlantic Ave Child and Family Center,,1825 Atlantic Avenue,Brooklyn,Brooklyn,NY,11233,Head Start,Early Childhood Education,,,40.677378,-73.925798
Grand Street Settlement,Williamsburg Community Center,,195 Graham Avenue,Brooklyn,Brooklyn,NY,11206,Cornerstone,,Afterschool,,40.709171,-73.943827
Grand Street Settlement,Rutgers Community Center,,200 Madison Street,New York,Manhattan,NY,10002,Cornerstone,,Afterschool,,40.712348,-73.990591
Grand Street Settlement,Narcisa Luz Del Saber,,205 Covert Street,Brooklyn,Brooklyn,NY,11207,Head Start,Early Childhood Education,,,40.690389,-73.908517
Grand Street Settlement,MS 582,,207 Bushwick Avenue,Brooklyn,Brooklyn,NY,11206,Community School,,,,40.70877,-73.939804
Grand Street Settlement,PS 196 Ten Eyck,,207 Bushwick Avenue,Brooklyn,Brooklyn,NY,11206,COMPASS/SONYC,,Afterschool,,40.70877,-73.939804
Grand Street Settlement,Juan Morel Campos Secondary School,,215 Heyward Street,Brooklyn,Brooklyn,NY,11206,Community School,,,,40.703734,-73.953216
Grand Street Settlement,Cornelia Connelly Center,,220 East 4th Street,New York,Manhattan,NY,10009,COMPASS/SONYC,,Afterschool,,40.723575,-73.983467
Grand Street Settlement,Lyons Community School,,223 Graham Avenue,Brooklyn,Brooklyn,NY,11206,COMPASS/SONYC,,Afterschool,,40.709823,-73.943912
Grand Street Settlement,PS 84,,250 Berry Street,Brooklyn,Brooklyn,NY,11249,COMPASS/SONYC,,Afterschool,,40.714849,-73.963132
Grand Street Settlement,Wyckoff Community Center,,280 Wyckoff Street,Brooklyn,Brooklyn,NY,11217,Cornerstone,,Afterschool,,40.682928,-73.983109
Grand Street Settlement,Manhattan Child & Family Center,,294 Delancey Street,New York,Manhattan,NY,10002,Head Start,Early Childhood Education,,,40.716367,-73.979257
Grand Street Settlement,Manhattan Child & Family Center,,300 Delancey Street,New York,Manhattan,NY,10002,Child Care Center,Early Childhood Education,,,40.716852,-73.978685
Grand Street Settlement,Brooklyn Community Arts and Media High School,,300 Willoughby Avenue,Brooklyn,Brooklyn,NY,11205,Community School,,,,40.69256,-73.95834
Grand Street Settlement,Bushwick Child & Family Center,,319 Stanhope Street,Brooklyn,Brooklyn,NY,11237,Cornerstone,,Afterschool,,40.70297,-73.918389
Grand Street Settlement,Marcus Garvey Community Center,,353 Chester Street,Brooklyn,Brooklyn,NY,11212,Other Children & Youth Services,,,,40.663124,-73.909892
Grand Street Settlement,Transfiguration School,,37 St. James Place,New York,Manhattan,NY,10038,COMPASS/SONYC,,Afterschool,,40.712377,-73.998912
Grand Street Settlement,Hope of the Future 1,,376 Palmetto Street,Brooklyn,Brooklyn,NY,11237,Head Start,Early Childhood Education,,,40.69865,-73.911755
Grand Street Settlement,PS 158 Warick,,400 Ashford Street,Brooklyn,Brooklyn,NY,11207,Community School,,,,40.67257,-73.884927
Grand Street Settlement,Roosevelt II Community Center,,400 Hart Street,Brooklyn,Brooklyn,NY,11206,Cornerstone,,Afterschool,,40.694634,-73.934716
Grand Street Settlement,Solesita Day Care,,402 Stanhope Street,Brooklyn,Brooklyn,NY,11237,Head Start,Early Childhood Education,,,40.705092,-73.915896
Grand Street Settlement,Best Day Care,,403 Stanhope Street,Brooklyn,Brooklyn,NY,11237,Head Start,Early Childhood Education,,,40.705163,-73.916187
Grand Street Settlement,Gowanus Community Center,,420 Baltic Street,Brooklyn,Brooklyn,NY,11217,Cornerstone,,Afterschool,,40.682774,-73.989062
Grand Street Settlement,Lafayette Gardens Community Center,,442 Dekalb Avenue,Brooklyn,Brooklyn,NY,11205,Cornerstone,,Afterschool,,40.690066,-73.959671
Grand Street Settlement,Marcy Houses Community Center,,492 Marcy Avenue,Brooklyn,Brooklyn,NY,11206,Cornerstone,,Afterschool,,40.69817,-73.95037
Grand Street Settlement,Bushwick-Hylan Community Center,,50 Humboldt Street,Brooklyn,Brooklyn,NY,11206,Cornerstone,,Afterschool,,40.703463,-73.940548
Grand Street Settlement,Kreative Kare Day Care Center; Little Treasures,,541 Knickerbocker Avenue,Brooklyn,Brooklyn,NY,11221,Head Start,Early Childhood Education,,,40.697412,-73.915655
Grand Street Settlement,Seward Park Community Center,,56 Essex Street,New York,Manhattan,NY,10002,Cornerstone,,Afterschool,,40.716899,-73.988859
Grand Street Settlement,Unity Plaza Community Center,,576 Blake Avenue,Brooklyn,Brooklyn,NY,11207,Cornerstone,,Afterschool,,40.666871,-73.897646
Grand Street Settlement,Hamilton Madison House,,60 Catherine Street,New York,Manhattan,NY,10038,Head Start,Early Childhood Education,,,40.71146,-73.997241
Grand Street Settlement,Manhattan Child & Family Center,,60 Essex Street,New York,Manhattan,NY,10002,"Child Care Center, Head Start",Early Childhood Education,,,40.716959,-73.988684
Grand Street Settlement,Baruch Houses Community Center,,605 FDR Drive,New York,Manhattan,NY,10002,Cornerstone,,Afterschool,,40.718082,-73.975424
Grand Street Settlement,Little Bell,,629 51st Street,Brooklyn,Brooklyn,NY,11220,Head Start,Early Childhood Education,,,40.642848,-74.007838
Grand Street Settlement,Happy Face Day Care,,65 Bush Street,Brooklyn,Brooklyn,NY,11231,Head Start,Early Childhood Education,,,40.675513,-74.006589
Grand Street Settlement,PS 297 Abraham Stockton,,700 Park Avenue,Brooklyn,Brooklyn,NY,11206,Community School,,,,40.697642,-73.947724
Grand Street Settlement,Senior Housing,,711 East 6th Street,New York,Manhattan,NY,10009,Other Older Adult Services,,,Older Adults,40.723287,-73.97849
Grand Street Settlement,BEST NORC (Baruch Houses),,72 Columbia Street,New York,Manhattan,NY,10002,NORC,,,Older Adults,40.717114,-73.979163
Grand Street Settlement,Tompkins Community Center,,736 Park Avenue,Brooklyn,Brooklyn,NY,11206,Cornerstone,,Afterschool,,40.697754,-73.946093
Grand Street Settlement,G&T Child Care Corp.,,775 50th Street,Brooklyn,Brooklyn,NY,11220,Head Start,Early Childhood Education,,,40.641456,-74.004053
Grand Street Settlement,Pitt Street Community Center,X,80 Pitt Street,New York,Manhattan,NY,10002,"Head Start, COMPASS/SONYC, Older Adult Center, Food Access, Family Services",Early Childhood Education,Afterschool,Older Adults,40.718176,-73.981776
Grand Street Settlement,PS 157 Benjamin Franklin,,850 Kent Avenue,Brooklyn,Brooklyn,NY,11205,COMPASS/SONYC,,Afterschool,,40.695284,-73.959661
Grand Street Settlement,Sunset Park Child & Family Center,,850-856 50th Street,Brooklyn,Brooklyn,NY,11220,Head Start,Early Childhood Education,,,40.640228,-74.002475
Grand Street Settlement,Sunset Park Child & Family Center,,928 55th Street,Brooklyn,Brooklyn,NY,11219,Head Start,Early Childhood Education,,,40.63646,-74.003798
Grand Street Settlement,Julizbeth Day Care,,99 Cornelia Street,Brooklyn,Brooklyn,NY,11221,Head Start,Early Childhood Education,,,40.689981,-73.915978
Greenwich House,Geriatric MH ,,12 Ave D ,New York,Manhattan,NY,10009,Mental Health & Substance Abuse,,,,40.720246,-73.978183
Greenwich House,Children & Youth Services at FJC Queens,,126-02 82nd Ave. ,Kew Gardnes,Queens,NY,11415,"Mental Health & Substance Abuse, Violence Prevention",,,,40.713443,-73.826011
Greenwich House,Geriatric MH ,,15-17 Willett Street,New York,Manhattan,NY,10002,Mental Health & Substance Abuse,,,,40.7158448,-73.9858684
Greenwich House,Older Adult Center @ Westbeth Artist Housing,,155 Bank Street,New York,Manhattan,NY,10014,"Older Adult Center, Mental Health & Substance Abuse",,,Older Adults,40.736553,-74.009332
Greenwich House,Pottery,,16 Jones Street,New York,Manhattan,NY,10014,Arts & Culture,,,,40.731978,-74.002392
Greenwich House,After School @ PS19,,185 1st Ave,New York,Manhattan,NY,10003,Other Children & Youth Services,,,,40.729743,-73.98402
Greenwich House,Center for Healing (Methadone Maintenance Treatment Program),,190 Mercer Street,New York,Manhattan,NY,10012,Mental Health & Substance Abuse,,,,40.726239,-73.997094
Greenwich House,Center on the Square,,20 Washington Square North,New York,Manhattan,NY,10011,"Older Adult Center, Mental Health & Substance Abuse",,,Older Adults,40.731952,-73.997768
Greenwich House,Geriatric MH ,,204 E 23rd St,New Yok,Manhattan,NY,10010,Mental Health & Substance Abuse,,,,40.738486,-73.982726
Greenwich House,Children & Youth Services at FJC Mahattan,,225 W 39th St,New York,Manhattan,NY,10018,"Mental Health & Substance Abuse, Violence Prevention",,,,40.754654,-73.989285
Greenwich House,Geriatric MH ,,239 W 49th ST.,New York,Manhattan,NY,10019,Mental Health & Substance Abuse,,,,40.761413,-73.985676
Greenwich House,Our Lady of Pompeii,,25 Carmine Street,New York,Manhattan,NY,10014,Older Adult Center,,,Older Adults,40.730363,-74.002787
Greenwich House,Lifelong Skills & Opportunity Center & Barrow Street Nursery School & Youth Programming,X,27 Barrow Street,New York,Manhattan,NY,10014,"Workforce Development, Other Children & Youth Services, Arts & Culture",,,,40.732418,-74.00315
Greenwich House,Independence Plaza,,310 Greenwich Street,New York,Manhattan,NY,10013,"Older Adult Center, Mental Health & Substance Abuse",,,Older Adults,40.717596,-74.010866
Greenwich House,Afterschool @ PS15,,333 E 4th St.,New York,Manhattan,NY,10009,Other Children & Youth Services,,,,40.721793,-73.978713
Greenwich House,Geriatric MH ,,334 Madison St.,New York,Manhattan,NY,10002,Mental Health & Substance Abuse,,,,40.713069,-73.982779
Greenwich House,Geriatric MH ,,343 E 70th ,New York,Manhattan,NY,10021,Mental Health & Substance Abuse,,,,40.766755,-73.957123
Greenwich House,Greenwich House Music,,46 Barrow Street,New York,Manhattan,NY,10014,Arts & Culture,,,,40.732126,-74.004506
Greenwich House,Geriatric MH ,,530 W 55th St,New York,Manhattan,NY,10019,Mental Health & Substance Abuse,,,,40.768091,-73.991005
Greenwich House,Geriatric MH ,,601 Lexington Ave. ,New York,Manhattan,NY,10022,Mental Health & Substance Abuse,,,,40.758412,-73.970505
Greenwich House,Center for Resiliency & Wellness,,623 Broadway,New York,Manhattan,NY,10012,Mental Health & Substance Abuse,,,,40.725948,-73.996533
Greenwich House,Chelsea Pottery,,80 8th Ave,New York,Manhattan,NY,10011,Arts & Culture,,,,40.739929,-74.002179
Hamilton-Madison House,City Hall Older Adult Center / Caregiver Services,,100 Gold Street,New York,Manhattan,NY,10038,"Older Adult Center, Other Older Adult Services, Adult Literacy, Arts & Culture, Food Access, Health & Fitness, Immigrant Services",,,Older Adults,40.710464,-74.003634
Hamilton-Madison House,Supported Housing and Korean Clinic,,108-11 48th Ave.,Corona,Queens,NY,11368,"Mental Health & Substance Abuse, Housing & Homelessness",,,,40.746214,-73.855832
Hamilton-Madison House,Chatham Green NORC,,185 Park Row,New York,Manhattan,NY,10038,NORC,,,Older Adults,40.712481,-73.999873
Hamilton-Madison House,DOE Head Start,,243 Cherry Street,New York,Manhattan,NY,10002,Head Start,Early Childhood Education,,,40.71074,-73.990599
Hamilton-Madison House,"Main Office; Social Adult Day; Outpatient Behavioral Health Clinics (Article 31, 32) + PROS + CONNECT",X,253 South Street,New York,Manhattan,NY,10002,"Mental Health & Substance Abuse, Other Older Adult Services",,,Older Adults,40.710144,-73.990538
Hamilton-Madison House,Knickerbocker Village NORC,,36 Monroe Street,New York,Manhattan,NY,10002,NORC,,,Older Adults,40.711437,-73.994528
Hamilton-Madison House,Smith Community Center / Smith NORC; Caregiver Services,,50 Madison Street,New York,Manhattan,NY,10038,"Other Children & Youth Services, NORC, Arts & Culture, Adult Literacy, Food Access, Health & Fitness, Immigrant Services, Other Older Adult Services",,,Older Adults,40.711659,-73.997837
Hamilton-Madison House,Childcare + Early Head Start (federal),,60 Catherine Street,New York,Manhattan,NY,10038,"Child Care Center, Other Children & Youth Services",Early Childhood Education,,,40.71146,-73.997241
Hamilton-Madison House,77 Market Street - DOE Head Start,,77 Market Street,New York,Manhattan,NY,10002,Head Start,Early Childhood Education,,,40.710649,-73.994249
Hamilton-Madison House,Two Bridges Senior Apartments,,80 Rutgers Slip,New York,Manhattan,NY,10002,Other Older Adult Services,,,Older Adults,40.710782,-73.990058
Hamilton-Madison House,Southbridge Towers (1 day/week),,90 Beekman Street,New York,Manhattan,NY,10038,Other Older Adult Services,,,Older Adults,40.708811,-74.003712
Henry Street Settlement,PS 142,,100 Attorney St.,New York,Manhattan,NY,10002,"Community School, Arts & Culture, Mental Health & Substance Abuse",,,,40.718515,-73.984218
Henry Street Settlement,PS 140,,123 Ridge Street,New York,Manhattan,NY,10002,Mental Health & Substance Abuse,,,,40.719137,-73.983284
Henry Street Settlement,M515 - Lower East Side Prep,,145 Stanton St.,New York,Manhattan,NY,10002,Arts & Culture,,,,40.720544,-73.98578
Henry Street Settlement,PS 20,,166 Essex St.,New York,Manhattan,NY,10002,"COMPASS/SONYC, Summer Rising, Arts & Culture, Mental Health & Substance Abuse",,Afterschool,,40.721327,-73.98657
Henry Street Settlement,Workforce Development Center,,178 Broome Street,New York,Manhattan,NY,10002,"Adult Literacy, Workforce Development, Immigrant Services, Mental Health & Substance Abuse, Youth Employment Services",,,,40.717015,-73.986287
Henry Street Settlement,M458 - Forsyth Satellite Academy / Pathways 2 Graduation Tenzer Learning Center,,198 Forsyth Street,New York,Manhattan,NY,10002,Arts & Culture,,,,40.722499,-73.990599
Henry Street Settlement,M448 - University Neighborhood High School,,200 Monroe St.,New York,Manhattan,NY,10002,Arts & Culture,,,,40.712415,-73.98401
Henry Street Settlement,M292 - Orchard Collegiate Academy,,220 Henry Street,New York,Manhattan,NY,10002,"Community School, Arts & Culture, Mental Health & Substance Abuse",,,,40.713612,-73.986311
Henry Street Settlement,M332 - United Neighborhood Middle School,,220 Henry Street,New York,Manhattan,NY,10002,"Community School, Arts & Culture, Mental Health & Substance Abuse, Other Children & Youth Services, COMPASS/SONYC",,Afterschool,,40.713612,-73.986311
Henry Street Settlement,Jobs Plus ,,24 Avenue D,New York,Manhattan,NY,10009,"Workforce Development, Family Services, Mental Health & Substance Abuse, Youth Employment Services",,,,40.720577,-73.977528
Henry Street Settlement,Henry Street Headquarters,X,265 Henry St.,New York,Manhattan,NY,10002,Civic Engagement & Community Organizing,,,,40.713971,-73.984507
Henry Street Settlement,Dale Jones Burch Neighborhood Center,,269 Henry Street,New York,Manhattan,NY,10002,"Family Services, Food Access, Immigrant Services",,,,40.713989,-73.984332
Henry Street Settlement,Third Street Women's Residence,,282 East 3rd St,New York,Manhattan,NY,10009,"Housing & Homelessness, Mental Health & Substance Abuse",,,,40.721347,-73.980066
Henry Street Settlement,PS 110,,285 Delancey St.,New York,Manhattan,NY,10002,"Other Children & Youth Services, Arts & Culture",,,,40.715522,-73.979954
Henry Street Settlement,Third Street Supportive Housing,,290 East 3rd St,New York,Manhattan,NY,10009,"Housing & Homelessness, Mental Health & Substance Abuse",,,,40.721236,-73.979811
Henry Street Settlement,PS 134,,293 East Broadway,New York,Manhattan,NY,10002,"Mental Health & Substance Abuse, Arts & Culture, Beacon, COMPASS/SONYC",,Afterschool,,40.714522,-73.983153
Henry Street Settlement,301 Henry Street Youth Center,,301 Henry St.,New York,Manhattan,NY,10002,"Child Care Center, Youth Employment Services, Other Children & Youth Services, Health & Fitness",Early Childhood Education,,,40.714165,-73.982704
Henry Street Settlement,Helen's House,,309 Henry Street,New York,Manhattan,NY,10002,"Housing & Homelessness, Family Services",,,,40.714206,-73.982318
Henry Street Settlement,PS 147,,325 Bushwick Ave,New York,Brooklyn,NY,11206,Arts & Culture,,,,40.70478,-73.939007
Henry Street Settlement,PS 184,,327 Cherry St.,New York,Manhattan,NY,10002,"COMPASS/SONYC, Arts & Culture",,Afterschool,,40.711507,-73.985852
Henry Street Settlement,Older Adult Center,,334 Madison St.,New York,Manhattan,NY,10002,Older Adult Center,,,Older Adults,40.713069,-73.982779
Henry Street Settlement,Senior Companions Program; Naturally Occurring Retirement Community,,351 Madison Street,New York,Manhattan,NY,10002,"NORC, Other Older Adult Services",,,Older Adults,40.713803,-73.982734
Henry Street Settlement,Meals on Wheels Office,,367 Madison St.,New York,Manhattan,NY,10002,"Food Access, Other Older Adult Services",,,Older Adults,40.713829,-73.982364
Henry Street Settlement,Community Consultation Center,,40 Montgomery St.,New York,Manhattan,NY,10002,Mental Health & Substance Abuse,,,,40.712674,-73.985597
Henry Street Settlement,PS 188,,442 Houston St.,New York,Manhattan,NY,10002,"Community School, Arts & Culture, Mental Health & Substance Abuse, Other Children & Youth Services",,,,40.719971,-73.979481
Henry Street Settlement,Abrons Arts Center,,466 Grand St.,New York,Manhattan,NY,10002,Arts & Culture,,,,40.715215,-73.98375
Henry Street Settlement,Jacob Riis Cornerstone,,80 Avenue D,New York,Manhattan,NY,10009,"Cornerstone, Adult Literacy, Other Children & Youth Services",,Afterschool,,40.722593,-73.976278
Henry Street Settlement,PS 126,,80 Catherine St.,New York,Manhattan,NY ,10038,Mental Health & Substance Abuse,,,,40.710352,-73.996705
Henry Street Settlement,Boys and Girls Republic,,888 East Sixth St.,New York,Manhattan,NY,10009,"COMPASS/SONYC, LEAPS, Summer Rising, Other Children & Youth Services, Health & Fitness",,Afterschool,,40.722081,-73.976246
Hudson Guild/Hartley House,Fulton Center,,119 9th Ave,New York,Manhattan,NY,10011,Older Adult Center,,,Older Adults,40.743252,-74.003941
Hudson Guild/Hartley House,Amsterdam Houses,,206 West 64th St.,New York,Manhattan,NY,10023,Child Care Center,Early Childhood Education,,,40.773613,-73.985732
Hudson Guild/Hartley House,Clinton Housing,,300 W 46th St,New York,Manhattan,NY,10036,Housing & Homelessness,,,,40.759843,-73.988325
Hudson Guild/Hartley House,P.S. 191,,300 West 61st Street,New York,Manhattan,NY,10023,"COMPASS/SONYC, Summer Rising",,Afterschool,,40.772966,-73.990123
Hudson Guild/Hartley House,Clinton Housing,,353 West 30th St,New York,Manhattan,NY,10001,Housing & Homelessness,,,,40.75079,-73.997299
Hudson Guild/Hartley House,Clinton Center,,410 W 40th St,New York,Manhattan,NY,10018,Child Care Center,Early Childhood Education,,,40.757318,-73.994266
Hudson Guild/Hartley House,Hartley House,,413 W 46th St.,New York,Manhattan,NY,10036,Other Children & Youth Services,,,,40.761283,-73.991208
Hudson Guild/Hartley House,TechUp Learning Lab,,418 West 17th St.,New York,Manhattan,NY,10011,Other Children & Youth Services,,,,40.742965,-74.004965
Hudson Guild/Hartley House,NORC,,428 W 26th St,New York,Manhattan,NY,10001,NORC,,,Older Adults,40.748852,-74.001452
Hudson Guild/Hartley House,John Lovejoy Elliot Center,X,441 W 26th St,New York,Manhattan,NY,10001,"Youth Employment Services, Arts & Culture, Mental Health & Substance Abuse, Civic Engagement & Community Organizing",,,,40.749557,-74.001512
Hudson Guild/Hartley House,Clinton Housing,,454 W 35th St,New York,Manhattan,NY,10001,Housing & Homelessness,,,,40.754889,-73.998048
Hudson Guild/Hartley House,Children's Center,,459 W 26th St,New York,Manhattan,NY,10001,Child Care Center,Early Childhood Education,,,40.749486,-74.002171
Hudson Guild/Hartley House,Clinton Housing Mental Health and Case Managment Services (42nd Street),,500 W 42nd St,New York,Manhattan,NY,10036,Housing & Homelessness,,,,40.75964,-73.995903
Hudson Guild/Hartley House,Polly Dodge Center,,538 West 55th Street,New York,Manhattan,NY,10019,Child Care Center,Early Childhood Education,,,40.768591,-73.991596
Hudson Guild/Hartley House,Clinton Housing,,554 W 53rd St,New York,Manhattan,NY,10019,Housing & Homelessness,,,,40.767563,-73.993041
Huntington Family Centers,Main Office,X,405 Gifford Street,Syracuse,Syracuse,NY,13204,"Child Care Center, Other Children & Youth Services, Older Adult Center, Other Older Adult Services, Food Access, Family Services",Early Childhood Education,,Older Adults,43.043126,-76.160723
Huntington Family Centers,Oswego County Office,,808 West Broadway St,Fulton,Fulton,NY,13069,Mental Health & Substance Abuse,,,,43.313466,-76.426471
Huntington Family Centers,Delaware County Office,,99 Main St,Delhi,Delhi,NY,12723,Mental Health & Substance Abuse,,,,41.766303,-75.057941
Jacob Riis Neighborhood Settlement,Riise and Build Center (RBC),,10-16 41st ave,Long Island City,Queens,NY,11101,Civic Engagement & Community Organizing,,,,40.755268,-73.945303
Jacob Riis Neighborhood Settlement,Queensbridge Headquarters,X,10-25 41st Ave.,Long Island City,Queens,NY,11101,"Cornerstone, Summer Rising, Other Children & Youth Services, NORC, Older Adult Center, Civic Engagement & Community Organizing, Immigrant Services, Food Access",,Afterschool,Older Adults,40.755456,-73.944639
Jacob Riis Neighborhood Settlement,Information Technology High School,,21-16 44th Rd.,Long Island City,Queens,NY,11101,"LEAPS, Youth Employment Services",,Afterschool,,40.748632,-73.946444
Jacob Riis Neighborhood Settlement,Astoria Family Enrichment Center,,31-18 31 Street,Astoria,Queens,NY,11106,"Family Services, Other Children & Youth Services",,,,40.763906,-73.924095
Jacob Riis Neighborhood Settlement,PS 166 Henry Gradstein,,33-09 35th Ave.,Astoria,Queens,NY,11106,COMPASS/SONYC,,Afterschool,,40.757355,-73.926474
Jacob Riis Neighborhood Settlement,Ravenswood Community Center,,35-40 21st Street,Astoria,Queens,NY,11106,"Cornerstone, Youth Employment Services, Workforce Development, Summer Rising, Other Children & Youth Services, Family Services",,Afterschool,,40.760494,-73.936703
Jacob Riis Neighborhood Settlement,PS 111 Jacob Blackwell,,37-15 13th Street,Long Island City,Queens,NY,11101,"COMPASS/SONYC, Arts & Culture",,Afterschool,,40.758608,-73.939375
Jacob Riis Neighborhood Settlement,Administrative Headquarters,,5-46 46th Avenue,Long Island City,Queens,NY,11101,,,,,40.746928,-73.953474
Kingsbridge Heights Community Center,Walton Campus,,2780 Reservoir Ave.,Bronx,Bronx,NY,10468,"Other Children & Youth Services, COMPASS/SONYC",,Afterschool,,40.870689,-73.897592
Kingsbridge Heights Community Center,Early Childhood Buildling ,,3067 Kingsbridge Terrace,Bronx,Bronx,NY,10463,Child Care Center,Early Childhood Education,,,40.87737,-73.900943
Kingsbridge Heights Community Center,Stern House,,3071 Kingsbridge Terrace,Bronx,Bronx,NY,10463,"Mental Health & Substance Abuse, Violence Prevention",,,,40.877456,-73.900857
Kingsbridge Heights Community Center,"Main Office/Admin/Early Childhood/Youth,Adult and Family",X,3101 Kingsbridge Terrace,Bronx,Bronx,NY,10463,"Child Care Center, COMPASS/SONYC, Head Start, Summer Rising, Other Children & Youth Services, Youth Employment Services, Adult Literacy, Arts & Culture, Food Access, Family Services, Housing & Homelessness, Immigrant Services, Violence Prevention, Workforce Development, Mental Health & Substance Abuse",Early Childhood Education,Afterschool,,40.877523,-73.900547
Kingsbridge Heights Community Center,JFK Campus,,99 Terrace View Ave.,Bronx,Bronx,NY,10463,"COMPASS/SONYC, Other Children & Youth Services",,Afterschool,,40.877268,-73.912579
Korean Community Services,Public Health & Research Center,,"103-04 39th Ave, #103",Queens,Queens,NY,11368,"Civic Engagement & Community Organizing, Health & Fitness, Housing & Homelessness, Immigrant Services",,,,40.750642,-73.862909
Korean Community Services,Main Building,X,203-05 32nd Avenue,Queens,Queens,NY,11361,"Immigrant Services, Other Children & Youth Services, Older Adult Center, Other Older Adult Services, Adult Literacy, Arts & Culture, Civic Engagement & Community Organizing, Health & Fitness, Housing & Homelessness, Workforce Development, Food Access, Family Services, Mental Health & Substance Abuse",,,Older Adults,40.770763,-73.786531
Korean Community Services,Public Health & Research Center,,2460 Lemoine Ave,Fort Lee,Bergen,NJ,07024,"Civic Engagement & Community Organizing, Food Access, Family Services, Health & Fitness, Housing & Homelessness, Violence Prevention",,,,40.864312,-73.961478
Korean Community Services,Public Health & Research Center,,"315 5th Ave, #705",New York,Manhattan,NY,10016,"Civic Engagement & Community Organizing, Health & Fitness, Housing & Homelessness, Food Access",,,,40.746994,-73.985397
Korean Community Services,Workforce Development,,"325 West 38th St, Suite 1107",New York,Manhattan,NY,10018,"Workforce Development, NORC",,,Older Adults,40.75532,-73.992793
Korean Community Services,Corona Neighborhood Senior Center,,37-06 111th Street,Queens,Queens,NY,11368,"Other Older Adult Services, Older Adult Center, Food Access, Housing & Homelessness, Violence Prevention",,,Older Adults,40.753677,-73.857063
Korean Community Services,Flushing Neighborhood Senior Center,,42-15 166th Street,Queens,Queens,NY,11358,"Older Adult Center, Other Older Adult Services, Housing & Homelessness, Food Access, Arts & Culture, Violence Prevention, Family Services",,,Older Adults,40.75901,-73.800211
Korean Community Services,Mental Health Clinic,,42-16 162nd Street,Queens,Queens,NY,11358,Mental Health & Substance Abuse,,,,40.759767,-73.804285
Korean Community Services,Older Adult Services,,633 W 115th St,New York,Manhattan,NY,10025,"Older Adult Center, Other Older Adult Services, Food Access, Housing & Homelessness, COMPASS/SONYC",,Afterschool,Older Adults,40.808051,-73.965792
Lenox Hill Neighborhood House,Casa Mutua Supportive Housing Residence,,159-61 East102nd St.,New York,Manhattan,NY,10029,Housing & Homelessness,,,,40.789647,-73.947776
Lenox Hill Neighborhood House,Administrative and Program Headquarters,X,331 E.70th St.,New York,Manhattan,NY,10021,"Head Start, Other Older Adult Services, Adult Literacy, Food Access",Early Childhood Education,,Older Adults,40.766956,-73.957774
Lenox Hill Neighborhood House,Center @ Lenox Hill Neighborhood House,,343 East 70th St.,New York,Manhattan,NY,10021,Older Adult Center,,,Older Adults,40.766755,-73.957123
Lenox Hill Neighborhood House,Older Adult Center @ St. Peter's Church,,619 Lexington Ave,New York,Manhattan,NY,10022,Older Adult Center,,,Older Adults,40.758687,-73.97038
Lenox Hill Neighborhood House,Women's Mental Health Shelter,,643 Park Avenue,New York,Manhattan,NY,10065,Housing & Homelessness,,,,40.76751,-73.966134
Martin Luther King Multipurpose Center,Martin Luther King Multipurpose Center,,110 Bethune Blvd,Spring Valley,Rockland County,NY,10977,"Other Children & Youth Services, Other Older Adult Services, Family Services, Food Access, Civic Engagement & Community Organizing, Health & Fitness",,,Older Adults,41.119049,-74.037808
MMCC,PS 66,,1001 Jennings St,Bronx,Bronx,NY,10460,21st Century Community Learning Center,,Afterschool,,40.831224,-73.886726
MMCC,Edenwald Community Center,,1150 E 229th St.,Bronx,Bronx,NY,10466,"Cornerstone, Other Older Adult Services, Mental Health & Substance Abuse",,Afterschool,Older Adults,40.885942,-73.84494
MMCC,MS 244,,120 W 231st St.,Bronx,Bronx,NY,10463,COMPASS/SONYC,,Afterschool,,40.875954,-73.901426
MMCC,AmPark Teen Center,,130 Gale Place,Bronx,Bronx,NY,10463,Other Children & Youth Services,,,,40.885128,-73.893168
MMCC,Grant Houses,,1301 Amsterdam Avenue,New York,Manhattan,NY,10027,Cornerstone,,Afterschool,,40.811806,-73.956573
MMCC,PS 78,,1400 Needham Ave.,Bronx,Bronx,NY ,10469,Community School,,,,40.87866,-73.850711
MMCC,Co-op City Teen Center,,141 Einstein Loop,Bronx,Bronx,NY,10475,Other Children & Youth Services,,,,40.86526,-73.822233
MMCC,Kipp Elements Elementary School,,1504 Macombs Rd,Bronx,Bronx,NY,10452,Other Children & Youth Services,,,,40.84324,-73.917586
MMCC,PS 368,,1750 Amsterdam Ave,New York,Manhattan,NY,10031,"Community School, 21st Century Community Learning Center",,Afterschool,,40.826296,-73.947065
MMCC,ABM Project,,1909 Amsterdam Ave,New York,Manhattan,NY,10032,"Adult Literacy, Family Services, Other Children & Youth Services, Food Access",,,,40.83112,-73.943008
MMCC,City Island Afterschool at PS 175,,200 City Island Ave.,Bronx,Bronx,NY,10464,Other Children & Youth Services,,,,40.843701,-73.784918
MMCC,PS 340,,25 W 195th St,Bronx,Bronx,NY,10468,Other Children & Youth Services,,,,40.869089,-73.897308
MMCC,Tax Preparer Program,,2501 Grand Concourse,Bronx,Bronx,NY,10468,Workforce Development,,,,40.862499,-73.897306
MMCC,JHS 144,,"2545 Gunther Ave,",Bronx,Bronx,NY,10469,COMPASS/SONYC,,Afterschool,,40.864204,-73.836305
MMCC,Mosholu Day Camp,,261 Arden Valley Rd,Southfields,Southfields,NY,10975,Other Children & Youth Services,,,,41.2743066,-74.1098213
MMCC,PS 86,,2756 Reservoir Ave.,Bronx,Bronx,NY,10468,"Beacon, Community School",,Afterschool,,40.870032,-73.898209
MMCC,Parkside Community Center,,2972 Bronx Park,Bronx,Bronx,NY,10467,Cornerstone,,Afterschool,,40.869337,-73.870277
MMCC,Mosholu PS 8,,3010 Briggs Ave.,Bronx,Bronx,NY,10458,Beacon,,Afterschool,,40.872411,-73.883652
MMCC,International Charter Middle School,,"3030 Riverdale Ave,",Bronx,Bronx,NY ,10463,Other Children & Youth Services,,,,40.88106,-73.909359
MMCC,PS/MS 20,,3050 Webster Ave.,Bronx,Bronx,NY,10467,COMPASS/SONYC,,Afterschool,,40.869671,-73.879096
MMCC,PS 7 ,,3201 Kingsbridge Ave.,Bronx,Bronx,NY,10463,"Other Children & Youth Services, Summer Rising",,,,40.881447,-73.905615
MMCC,Explorer Day Camp,,33 Mesaris Circle,Woodbury,Bear Mountain,NY,10928,COMPASS/SONYC,,Afterschool,,41.313197,-74.08489
MMCC,Fort Independence Community Center,,3350 Bailey Ave.,Bronx,Bronx,NY,10463,"Cornerstone, Older Adult Center, Food Access",,Afterschool,Older Adults,40.879854,-73.900401
MMCC,PS 41,,3352 Olinville Ave.,Bronx,Bronx,NY,10467,COMPASS/SONYC,,Afterschool,,40.874522,-73.868022
MMCC,Main Office,X,3450 DeKalb Ave.,Bronx,Bronx,NY,10467,"Workforce Development, Other Children & Youth Services, Food Access, Adult Literacy, Older Adult Center, Immigrant Services, Mental Health & Substance Abuse, Family Services",,,Older Adults,40.881966,-73.880582
MMCC,CDC of MMCC - Main Site,,3450 Dekalb Avenue,Bronx,Bronx,NY,10467,"Child Care Center, Head Start",Early Childhood Education,,,40.881966,-73.880582
MMCC,CDC of MMCC - Northside Annex,,3512 DeKalb Ave.,Bronx,Bronx,NY,10467,"Child Care Center, Head Start, Workforce Development",Early Childhood Education,,,40.882593,-73.880004
MMCC,PS 94,,3530 Kings College Place,Bronx,Bronx,NY,10467,COMPASS/SONYC,,Afterschool,,40.880463,-73.875535
MMCC,Bronx Dance Academy,,3617 Bainbridge Ave.,Bronx,Bronx,NY,10467,COMPASS/SONYC,,Afterschool,,40.885373,-73.877805
MMCC,Baychester Middle School; Bronx Alliance; One World Middle School-SONYC,,3750 Baychester Ave.,Bronx,Bronx,NY,10466,COMPASS/SONYC,,Afterschool,,40.886052,-73.840578
MMCC,CDC of MMCC - Van Cortlandt,,3880 Sedgwick Ave.,Bronx,Bronx,NY,10463,"Child Care Center, Head Start",Early Childhood Education,,,40.88274,-73.893779
MMCC,PS/MS 95,,3961 Hillman Ave.,Bronx,Bronx,NY,10463,COMPASS/SONYC,,Afterschool,,40.882954,-73.891442
MMCC,PS 103,,4125 Carpenter Ave,Bronx,Bronx,NY,10466,21st Century Community Learning Center,,Afterschool,,40.892254,-73.861624
MMCC,PS 160; Equality Charter School,,4140 Hutchinson River Pkwy,Bronx,Bronx,NY,10475,COMPASS/SONYC,,Afterschool,,40.8644,-73.824242
MMCC,PS/MS 19,,4318 Katonah Ave.,Bronx,Bronx,NY,10470,"COMPASS/SONYC, LEAPS",,Afterschool,,40.899302,-73.8673
MMCC,PS 16,,4550 Carpenter Ave,Bronx,Bronx,NY ,10470,Summer Rising,,,,40.902378,-73.854548
MMCC,Tiny Blossoms Child Development Center of MMCC - Early Head Start ,,4660 3rd Ave,Bronx,Bronx,NY,10458,"Child Care Center, Head Start",Early Childhood Education,,,40.857696,-73.89093
MMCC,Marble Hill Community Center,,5365 Broadway,Bronx,Bronx,NY,10463,"Older Adult Center, Food Access, Cornerstone",,Afterschool,Older Adults,40.876505,-73.908012
MMCC,Kipp Washington Heights,,586 W 177th St,New York,Manhattan,NY,10033,Other Children & Youth Services,,,,40.846444,-73.9352
MMCC,PS 153,,650 Baychester Ave.,Bronx,Bronx,NY,10475,COMPASS/SONYC,,Afterschool,,40.873054,-73.833346
MMCC,PS 21,,715 E 225th St.,Bronx,Bronx,NY,10466,COMPASS/SONYC,,Afterschool,,40.887672,-73.859731
MMCC,Kipp Academy Elementary School,,730 Concourse Village W,Bronx,Bronx,NY,10451,Other Children & Youth Services,,,,40.822582,-73.923547
MMCC,Gun Hill Community Center,,731 Magenta St.,Bronx,Bronx,NY,10467,Cornerstone,,Afterschool,,40.875453,-73.865496
MMCC,Gun Hill Cornerstone,,745 Magenta Street,Bronx,Bronx,NY,10467,"Cornerstone, Food Access",,Afterschool,,40.875208,-73.86536
MMCC,Capital Charter School,,755 Co Op City Blvd,Bronx,Bronx,NY,10475,COMPASS/SONYC,,Afterschool,,40.880113,-73.826676
MMCC,Pelham Parkway Community Center,,785 Pelham Parkway,Bronx,Bronx,NY,10467,Cornerstone,,Afterschool,,40.858151,-73.863868
MMCC,Bronx Lab School,,800 E. Gun Hill Rd,Bronx,Bronx,NY,10467,"Beacon, Workforce Development",,Afterschool,,40.875557,-73.861425
MMCC,PS 76,,900 Adee Ave,Bronx,Bronx,NY ,10469,LEAPS,,Afterschool,,40.869404,-73.861045
MMCC,PS 150,,920 E167th St.,Bronx,Bronx,NY ,10459,Community School,,,,40.826207,-73.894274
MMCC,Natly Esnard CDC of MMCC,,934 East Gun Hill Road,Bronx,Bronx,NY,10469,"Child Care Center, Head Start",Early Childhood Education,,,40.875002,-73.859459
New Settlement,New Settlement Apt,,1424-26 Walton Ave.,Bronx,Bronx,NY,10452,n/a,,,,40.840255,-73.915308
New Settlement,PS 64,,1425 Walton Ave.,Bronx,Bronx,NY,10452,"COMPASS/SONYC, Summer Rising",,Afterschool,,40.840301,-73.915611
New Settlement,New Settlement Apt,,1450-56 Townsend Ave.,Bronx,Bronx,NY,10452,n/a,,,,40.841039,-73.915662
New Settlement,New Settlement Apt,,1465-75-77 Townsend Ave.,Bronx,Bronx,NY,10452,n/a,,,,40.841652,-73.915669
New Settlement,Bronx Helpers; New Settlement Apt,,1484 Inwood Ave.,Bronx,Bronx,NY,10452,COMPASS/SONYC,,Afterschool,,40.842464,-73.917391
New Settlement,Mt. Eden's Children's Academy; Community Campus Center; CMSP 327,,1501 Jerome Ave.,Bronx,Bronx,NY,10452,"21st Century Community Learning Center, COMPASS/SONYC, Summer Rising, Health & Fitness, Other Children & Youth Services, Other Older Adult Services",,Afterschool,Older Adults,40.842618,-73.916241
New Settlement,New Settlement Apt,,1503-05 Walton Ave.,Bronx,Bronx,NY,10452,n/a,,,,40.841972,-73.914375
New Settlement,New Settlements Multicultural Afterschool Program,X,1512-14 Townsend Ave.,Bronx,Bronx,NY,10452,COMPASS/SONYC,,Afterschool,,40.84226,-73.914948
New Settlement,New Settlement Apt,,1517 Walton Ave.,Bronx,Bronx,NY,10452,n/a,,,,40.842073,-73.914304
New Settlement,New Settlement Apt,,1525 Walton Ave.,Bronx,Bronx,NY,10452,n/a,,,,40.842292,-73.914149
New Settlement,New Settlement Apt,,1525-33 Townsend Ave.,Bronx,Bronx,NY,10452,n/a,,,,40.842626,-73.914973
New Settlement,Program for Girls and Young Women,,1525-33 Townsend Ave.,Bronx,Bronx,NY,10452,Other Children & Youth Services,,,,40.842626,-73.914973
New Settlement,New Settlement Apt,,1530-32 Townsend Ave.,Bronx,Bronx,NY,10452,n/a,,,,40.842659,-73.914659
New Settlement,New Settlement Apt,,1550 Townsend Ave.,Bronx,Bronx,NY,10452,n/a,,,,40.842975,-73.914434
New Settlement,New Settlement Apt,,1560-62 Townsend Ave.,Bronx,Bronx,NY,10452,n/a,,,,40.843336,-73.914178
New Settlement,College Access and Success Center,,1563 Walton Ave.,Bronx,Bronx,NY,10452,"Workforce Development, Youth Employment Services, Other Children & Youth Services",,,,40.843306,-73.913423
New Settlement,New Settlement Apt,,1563 Walton Ave.,Bronx,Bronx,NY,10452,n/a,,,,40.843306,-73.913423
New Settlement,New Settlement Apt,,1585 Townsend Ave.,Bronx,Bronx,NY,10452,n/a,,,,40.844219,-73.913838
New Settlement,New Settlement Apt,,1610-14-16 Walton Ave.,Bronx,Bronx,NY,10452,n/a,,,,40.844076,-73.912578
New Settlement,New Settlement Apt,,1615-17 Walton Ave.,Bronx,Bronx,NY,10452,n/a,,,,40.844211,-73.912778
New Settlement,IS 303 ASP,,1700 Macombs Avenue,Bronx,Bronx,NY,10453,"Summer Rising, COMPASS/SONYC",,Afterschool,,40.849497,-73.915755
New Settlement,Young Adult Opportunity Initiative (YAOI),,19 East Mt Eden Ave.,Bronx,Bronx,NY,10452,"Workforce Development, Youth Employment Services",,,,40.844354,-73.91445
New Settlement,Taft School Success Center,,240 East 172nd St.,Bronx,Bronx,NY,10457,"Community School, Youth Employment Services, Other Children & Youth Services, Workforce Development",,,,40.840026,-73.911172
New Settlement,New Settlement Apt,,35 Marcy Place,Bronx,Bronx,NY,10452,Civic Engagement & Community Organizing,,,,40.83857,-73.917222
NMIC,Main Office,X,45 Wadsworth Avenue,New York,Manhattan,NY,10033,"Adult Literacy, Food Access, Family Services, Housing & Homelessness, Immigrant Services, Mental Health & Substance Abuse, Violence Prevention, Workforce Development, Other Children & Youth Services, Civic Engagement & Community Organizing, Health & Fitness",,,,40.846189,-73.937389
NMIC,Bronx Office,,8 Clinton Place,Bronx,Bronx,NY,10453,"Housing & Homelessness, Immigrant Services",,,,40.85664,-73.905222
Ocean Bay CDC,B.R.I.D.G.E. Family Enrichment Center,,217 Beach 92nd,Rockaway,Queens,NY,11693,"Youth Employment Services, Other Children & Youth Services, Civic Engagement & Community Organizing, Family Services, Workforce Development, Immigrant Services, Food Access, Arts & Culture",,,,40.586607,-73.815676
Ocean Bay CDC,Main Building,X,443 Beach 54th St.,Arverne,Queens,NY,11692,"Civic Engagement & Community Organizing, Family Services, Food Access",,,,40.596005,-73.784779
Ocean Bay CDC,Ocean Bay Community Center,,57-10 Beach Channel Drive,Arverne,Queens,NY,11692,"Adult Literacy, Workforce Development, Other Children & Youth Services, Arts & Culture, Family Services, Civic Engagement & Community Organizing, Mental Health & Substance Abuse, Food Access",,,,40.595007,-73.787626
Ocean Bay CDC,Y.E.S Afterschool Program,,57-10 Beach Channel Drive,Arverne,Queens,NY,11692,"Health & Fitness, Other Children & Youth Services",,,,40.595007,-73.787626
Ocean Bay CDC,Senior Center,,74-16 Beach Channel Drive,Rockaway,Queens,NY,11692,"Older Adult Center, Other Older Adult Services, Adult Literacy, Civic Engagement & Community Organizing, Food Access, Health & Fitness, Workforce Development",,,Older Adults,40.590823,-73.802869
Project Hospitality,Hospitality House Tier II Family Shelter,,100 Central Ave.,Staten Island,Staten Island,NY,10301,"Other Children & Youth Services, Family Services",,,,40.639074,-74.076482
Project Hospitality,Administrative Office,X,100 Park Ave.,Staten Island,Staten Island,NY,10302,,,,,40.638035,-74.132074
Project Hospitality,O'Callaghan House - MICA Transitional Housing / Hope Housing,,103 Targee Street,Staten Island,Staten Island,NY,10304,Housing & Homelessness,,,,40.624447,-74.083415
Project Hospitality,Legal Advocacy,,126 Bennett St,Staten Island,Staten Island,NY,10302,"Immigrant Services, Civic Engagement & Community Organizing",,,,40.637937,-74.13278
Project Hospitality,Wellness Center / Recovery Program,,14 Slosson Terrace,Staten Island,Staten Island,NY,10301,Mental Health & Substance Abuse,,,,40.639392,-74.076118
Project Hospitality,Drop In Center/Respite Bed/Outreach Housing Program/Health Homes,,150 Richmond Terrace,Staten Island,Staten Island,NY,10301,Housing & Homelessness,,,,40.64556,-74.078096
Project Hospitality,Food Pantry,,1540 Castleton Ave.,Staten Island,Staten Island,NY,10302,Food Access,,,,40.636052,-74.134271
Project Hospitality,TIL Grandview,,200 Grandview Ave,Staten Island,Staten Island,NY,10303,Other Children & Youth Services,,,,40.634913,-74.165275
Project Hospitality,HIV Supportive Services (SHINE Center),,205 Canal St.,Staten Island,Staten Island,NY,10304,"Mental Health & Substance Abuse, Food Access",,,,40.625201,-74.079671
Project Hospitality,Help Center; Food Pantry ,,211 Canal St.,Staten Island,Staten Island,NY,10304,"Other Children & Youth Services, Civic Engagement & Community Organizing, Family Services, Immigrant Services, Housing & Homelessness, Mental Health & Substance Abuse, Food Access",,,,40.625096,-74.07981
Project Hospitality,Help Center  ,,221 Port Richmond Ave.,Staten Island,Staten Island,NY,10302,"Civic Engagement & Community Organizing, Immigrant Services",,,,40.635887,-74.134724
Project Hospitality,Youth Drop In Center,,27 Port Richmond Ave.,Staten Island,Staten Island,NY,10302,Other Children & Youth Services,,,,40.639953,-74.131721
Project Hospitality,TIL Van Pelt,,348 Van Pelt Ave,Staten Island,Staten Island,NY,10303,Other Children & Youth Services,,,,40.627198,-74.155882
Project Hospitality,TIL Gary Court,,38 Gary Court,Staten Island,Staten Island,NY,10314,Other Children & Youth Services,,,,40.608161,-74.158659
Project Hospitality,Carpenter House,,385 Jersey Street,Staten Island,Staten Island,NY,10301,Housing & Homelessness,,,,40.638776,-74.087388
Project Hospitality,Emergency Shelter - Hylan,,481 Hylan Boulevard,Staten Island,Staten Island,NY,10305,Housing & Homelessness,,,,40.608145,-74.076666
Project Hospitality,HUD Permanent Supportive Housing / Medicaid Redesign Team Housing / Supportive Apartment Program / HOPWA Housing / Castleton Housing Program,,501 Cary Ave.,Staten Island,Staten Island,NY,10310,Housing & Homelessness,,,,40.632563,-74.118627
Project Hospitality,"PREP (Pause, Reflect, Engage, and Prepare)",,75 Vanderbilt Ave.,Staten Island,Staten Island,NY,10304,Mental Health & Substance Abuse,,,,40.622244,-74.074865
Queens Community House,John Adams HS,,101-01 Rockaway Blvd,Ozone Park,Queens,NY,11417,Other Children & Youth Services,,,,40.678944,-73.837069
Queens Community House,HS for Arts and Business,,105-25 Horace Harding Expressway N,Corona,Queens,NY,11368,Other Children & Youth Services,,,,40.737558,-73.853003
Queens Community House,Generation Q,,107-20 71st Road,Forest Hills,Queens,NY,11375,Other Children & Youth Services,,,,40.720282,-73.843178
Queens Community House,Forest Hills NORC,,108-03 62nd Dr,Forest Hills,Queens,NY,11375,NORC,,,Older Adults,40.736002,-73.850738
Queens Community House,Queens Childcare Network,,108-21 72nd Ave,Forest Hills,Queens,NY,11375,Child Care Center,Early Childhood Education,,,40.719986,-73.84244
Queens Community House,Forest Hills Community Center,,108-25 62nd Dr,Forest Hills,Queens,NY,11375,"COMPASS/SONYC, Youth Employment Services, Other Children & Youth Services, Older Adult Center, Other Older Adult Services, Adult Literacy, Arts & Culture, Civic Engagement & Community Organizing, Food Access, Family Services, Housing & Homelessness, Immigrant Services",,Afterschool,Older Adults,40.736169,-73.850151
Queens Community House,Administrative Office,X,108-69 62 Drive,Forest Hills,Queens,NY,11375,,,,,40.736548,-73.849419
Queens Community House,PS 160 ,,109-59 Inwood Street,Jamaica,Queens,NY,11435,Other Children & Youth Services,,,,40.688026,-73.799967
Queens Community House,Eviction Prevention Unit,,119-45 Union turnpike,Forest Hills,Queens,NY,11375,"Youth Employment Services, Other Older Adult Services, Family Services, Housing & Homelessness",,,Older Adults,40.714007,-73.832334
Queens Community House,Queens Academy HS,,138-11 35th Ave,Flushing,Queens,NY,11354,COMPASS/SONYC,,Afterschool,,40.76549,-73.82846
Queens Community House,"Queens College School for Math, Science, and Technology",,148-20 Reeves Ave,Flushing,Queens,NY,11367,COMPASS/SONYC,,Afterschool,,40.738878,-73.821298
Queens Community House,Young Women's Leadership School,,150-91 87 Rd,Briarwood,Queens,NY,11432,COMPASS/SONYC,,Afterschool,,40.708351,-73.804131
Queens Community House,VOYAGES South,,156-10 Baisley Blvd,Springfield Gardens,Queens,NY,11434,Other Children & Youth Services,,,,40.675176,-73.783293
Queens Community House,Hillcrest High School,,160-05 Highland Ave,Briarwood,Queens,NY,11432,Youth Employment Services,,,,40.709273,-73.802176
Queens Community House,Queens Satellite HS,,162-02 Hillside Ave,Jamaica,Queens,NY,11432,Other Children & Youth Services,,,,40.708358,-73.799599
Queens Community House,Queens Collegiate,,167-01 Gothic Dr,Jamaica,Queens,NY,11432,Other Children & Youth Services,,,,40.714112,-73.797831
Queens Community House,Business Tech. Early College HS,,230-17 Hillside Ave,Queens Village,Queens,NY,11427,Youth Employment Services,,,,40.733693,-73.738724
Queens Community House,Queens Center for Gay Seniors,,37-06 77th St,Jackson Heights,Queens,NY,11372,"Older Adult Center, Food Access",,,Older Adults,40.748988,-73.889325
Queens Community House,IS 429,,38-04 48 Street,Sunnyside,Queens,NY,11104,COMPASS/SONYC,,Afterschool,,40.7497522,-73.9182074
Queens Community House,Pioneer Academy,,40-20 100th Street,Corona,Queens,NY,11368,"Community School, COMPASS/SONYC",,Afterschool,,40.74927,-73.865604
Queens Community House,VOYAGES High School,,45-10 94th St,Elmhurst,Queens,NY,11373,Other Older Adult Services,,,Older Adults,40.743533,-73.870826
Queens Community House,Newtown High School,,48-01 90 Street,Elmhurst,Queens,NY,11373,21st Century Community Learning Center,,Afterschool,,40.740873,-73.874433
Queens Community House,Int'l High School of Health Sciences; Newtown High School,,48-01 90th St,Elmhurst,Queens,NY,11373,21st Century Community Learning Center,,Afterschool,,40.740873,-73.874433
Queens Community House,JHS 157,,64 Ave & 102 St,Rego Park,Queens,NY,11374,COMPASS/SONYC,,Afterschool,,40.731754,-73.853588
Queens Community House,PS 201,,65-11 155th St,Flushing,Queens,NY,11367,"COMPASS/SONYC, Summer Rising",,Afterschool,,40.736735,-73.813196
Queens Community House,Pomonok Community Center,,67-09 Kissena Blvd,Flushing,Queens,NY,11367,"COMPASS/SONYC, Youth Employment Services, Older Adult Center, Arts & Culture, Civic Engagement & Community Organizing, Food Access, Family Services, Health & Fitness, Workforce Development",,Afterschool,Older Adults,40.73517,-73.814091
Queens Community House,Beacon @ JHS 190,,68-17 Austin St,Forest Hills,Queens,NY,11375,"Beacon, Civic Engagement & Community Organizing",,Afterschool,,40.723117,-73.851783
Queens Community House,Youth Workforce,,70-34 Austin St,Forest Hills,Queens,NY,11375,"Youth Employment Services, Workforce Development",,,,40.720387,-73.845673
Queens Community House,Kew Gardens Community Center,,80-02 Kew Gardens Rd #202,Kew Gardens,Queens,NY,11415,Older Adult Center,,,Older Adults,40.71383,-73.83108
Queens Community House,JHS 217,,85-05 144 St,Briarwood,Queens,NY,11435,COMPASS/SONYC,,Afterschool,,40.710208,-73.812336
Queens Community House,PS 117,,85-15 143 St,Briarwood,Queens,NY,11435,COMPASS/SONYC,,Afterschool,,40.710022,-73.81322
Queens Community House,The SEVEN Family Enrichment Center,,87-10 Northern Blvd,Jackson Heights,Queens,NY,11372,Family Services,,,,40.755949,-73.880228
Queens Community House,PS 86,,87-41 Parsons Blvd,Briarwood,Queens,NY,11432,COMPASS/SONYC,,Afterschool,,40.709112,-73.803889
Queens Community House,PS 82,,88-02 144th Street,Jamaica,Queens,NY,11435,COMPASS/SONYC,,Afterschool,,40.703828,-73.811996
Queens Community House,MS 358,,88-08 164th St,Jamaica,Queens,NY,11432,COMPASS/SONYC,,Afterschool,,40.708729,-73.798175
Queens Community House,Jamaica Older Adult Center,,89-60 164th Street,Jamaica,Queens,NY,11432,Older Adult Center,,,Older Adults,40.705901,-73.796373
Queens Community House,Beacon @ JHS 210,,93-11 101st Ave,South Ozone Park,Queens,NY,11416,Beacon,,Afterschool,,40.684001,-73.847502
Queens Community House,Beacon @ PS 149,,93-11 34th Ave,Jackson Heights,Queens,NY,11372,Beacon,,Afterschool,,40.755097,-73.87423
Queens Community House,Epic High School,,94-25 117th Street,Richmond Hill,Queens,NY,11419,Youth Employment Services,,,,40.692864,-73.829167
Queens Community House,Rego Park Senior Center,,97-30 Queens Blvd,Rego Park,Queens,NY,11374,Older Adult Center,,,Older Adults,40.728672,-73.859281
Red Hook Initiative,Red Hook Farms,,10-46 Wolcott Street,Brooklyn,Brooklyn,NY,11231,Food Access,,,,40.675495,-74.009915
Red Hook Initiative,Red Hook Farms,,560 Columbia Street,Brooklyn,Brooklyn,NY,11231,Food Access,,,,40.672669,-74.008787
Red Hook Initiative,Red Hook Initiative,X,767 Hicks Street,Brooklyn,Brooklyn,NY,11231,"COMPASS/SONYC, Other Children & Youth Services, Civic Engagement & Community Organizing, Health & Fitness, Family Services, Workforce Development",,Afterschool,,40.676729,-74.004493
Riverdale Neighborhood House,"Tech Academy, MS/HS 368",,2975 Tibbett Ave.,Bronx,Bronx,NY,10463,COMPASS/SONYC,,Afterschool,,40.87911,-73.911025
Riverdale Neighborhood House,Riverdale House,X,5521 Mosholu Avenue,Bronx,Bronx,NY,10471,"COMPASS/SONYC, Other Children & Youth Services, Food Access, Civic Engagement & Community Organizing",,Afterschool,,40.903352,-73.903835
Riverdale Neighborhood House,Early Childhood Program,,5555 Mosholu Ave.,Bronx,Bronx,NY,10471,Child Care Center,Early Childhood Education,,,40.903747,-73.90346
Riverdale Neighborhood House,RKA MS/HS 141,,637 West 238th Street,Bronx,Bronx,NY,10463,"COMPASS/SONYC, Summer Rising",,Afterschool,,40.888781,-73.911999
SCAN-Harbor,"Performing Arts Academy, SCAN-Harbor T.E.E.N.S. Program",,1 East 104th St,New York,Manhattan,NY,10029,"Arts & Culture, COMPASS/SONYC",,Afterschool,,40.792871,-73.951536
SCAN-Harbor,PS 73,,1020 Anderson Ave.,Bronx,Bronx,NY,10452,COMPASS/SONYC,,Afterschool,,40.832711,-73.926606
SCAN-Harbor,Reverend T. Wendell Foster Recreation Center,,1020 Jerome Ave.,Bronx,Bronx,NY,10452,"Other Children & Youth Services, Food Access, Violence Prevention",,,,40.831974,-73.925258
SCAN-Harbor,Jackie Robinson Houses Cornerstone,,110 East 129th Street,New York,Manhattan,NY,10035,Cornerstone,,Afterschool,,40.806967,-73.936388
SCAN-Harbor,PS 114,,1155 Cromwell Ave.,Bronx,Bronx,NY,10452,COMPASS/SONYC,,Afterschool,,40.83516,-73.923039
SCAN-Harbor,Dewitt Clinton Houses Cornerstone,,120 East 110th Street,New York,Manhattan,NY,10029,Cornerstone,,Afterschool,,40.794934,-73.94515
SCAN-Harbor,Harbor Science and Art Charter School,,132/142 East 111th Street,New York,Manhattan,NY,10029,COMPASS/SONYC,,Afterschool,,40.795542,-73.944439
SCAN-Harbor,Family Renewal Center,,1377 Jerome Ave.,Bronx,Bronx,NY,10452,"Family Services, Mental Health & Substance Abuse",,,,40.838918,-73.9189
SCAN-Harbor,PS 199 (Bx),,1449 Shakespeare Ave.,Bronx,Bronx,NY,10452,COMPASS/SONYC,,Afterschool,,40.843379,-73.920448
SCAN-Harbor,IS 339,,1600 Webster Avenue,Bronx,Manhattan,NY,10457,COMPASS/SONYC,,Afterschool,,40.840671,-73.90426
SCAN-Harbor,Lehman Village Houses Cornerstone,,1605 Madison Avenue,New York,Manhattan,NY,10029,Cornerstone,,Afterschool,,40.794673,-73.948366
SCAN-Harbor,Eisman Nursery @ Holmes Towers,,1754 First Avenue,New York,Manhattan,NY,10128,"Child Care Center, Head Start",Early Childhood Education,,,40.7799,-73.946959
SCAN-Harbor,Johnson Community Center,,1833 Lexington Ave,New York,Manhattan,NY,10029,Cornerstone,,Afterschool,,40.796802,-73.942442
SCAN-Harbor,PS 171 - SCAN-Harbor K.I.D.S.,,19 East 103rd Street,New York,Manhattan,NY,10029,COMPASS/SONYC,,Afterschool,,40.792004,-73.951425
SCAN-Harbor,Martin Luther King Towers Cornerstone,,2 West 115th Street,New York,Manhattan,NY,10026,Cornerstone,,Afterschool,,40.79992,-73.947448
SCAN-Harbor,"Wadleigh HS Usawa Beacon, Reach for the Stars, W.I.S.H.",,215 West 114th Street,New York,Manhattan,NY,10026,"Beacon, Other Children & Youth Services",,Afterschool,,40.802293,-73.954082
SCAN-Harbor,El Faro Beacon @ MS 45,,2351 First Ave.,New York,Manhattan,NY,10035,Beacon,,Afterschool,,40.79919,-73.933397
SCAN-Harbor,PS 274,,275 Harlem River Park Bridge,Bronx,Bronx,NY,10453,COMPASS/SONYC,,Afterschool,,40.852643,-73.921271
SCAN-Harbor,Administrative Office,X,345 E 102nd St,New York,Manhattan,NY,10029,"Beacon, Child Care Center, Cornerstone, COMPASS/SONYC, Community School, Head Start, LEAPS, Summer Rising, Youth Employment Services, Other Children & Youth Services, Arts & Culture, Family Services, Food Access, Mental Health & Substance Abuse, Violence Prevention",Early Childhood Education,Afterschool,,40.787408,-73.942339
SCAN-Harbor,Seton Falls Beacon,,3750 Baychester Avenue,Bronx,Bronx,NY,10466,Beacon,,Afterschool,,40.886052,-73.840578
SCAN-Harbor,East River Houses Cornerstone,,404 East 105th Street,New York,Manhattan,NY,10029,Cornerstone,,Afterschool,,40.787829,-73.940404
SCAN-Harbor,Wagner Houses Cornerstone,,435 East 120th Street,New York,Manhattan,NY,10035,Cornerstone,,Afterschool,,40.79819,-73.931492
SCAN-Harbor,PS 55,,450 Saint Paul's Place,Bronx,Bronx,NY,10456,"COMPASS/SONYC, Community School",,Afterschool,,40.836143,-73.90456
SCAN-Harbor,PS 58,,459 East 176th Street,Bronx,Bronx,NY,10457,COMPASS/SONYC,,Afterschool,,40.846117,-73.898847
Shorefront Y,PS 225,,"1075 Ocean View Ave, ",Brooklyn,Brooklyn,NY,11235,"COMPASS/SONYC, Summer Rising, Adult Literacy",,Afterschool,,40.579818,-73.956012
Shorefront Y,Advantage Homecare,,1515 Sheepshead Bay Rd,Brooklyn,Brooklyn,NY,11235,Adult Literacy,,,,40.587355,-73.953613
Shorefront Y,PS 197,,"1599 E 22nd St,",Brooklyn,Brooklyn,NY,11210,Adult Literacy,,,,40.612574,-73.951669
Shorefront Y,EDP School ,,1601 Voorhies Ave,Brooklyn,Brooklyn,NY,11235,Adult Literacy,,,,40.585962,-73.952874
Shorefront Y,PS 206 ,,2200 Gravesend Neck Rd,Brooklyn,Brooklyn,NY,11229,Adult Literacy,,,,40.597299,-73.94884
Shorefront Y,Shorefront Y Center,X,3300 Coney Island Ave.,Brooklyn,Brooklyn,NY,11235,"Child Care Center, Other Children & Youth Services, NORC, Older Adult Center, Other Older Adult Services, Adult Literacy, Arts & Culture, Civic Engagement & Community Organizing, Family Services, Health & Fitness, Immigrant Services, Workforce Development",Early Childhood Education,,Older Adults,40.575736,-73.959804
Shorefront Y,Sea Breeze Jewish Center,,501 West Ave,Brooklyn,Brooklyn,NY,11224,Adult Literacy,,,,40.582227,-73.972479
Southeast Bronx Neighborhood Centers,IS 299 Roland Patterson,,275 Harlem River Park Bridge,Bronx,Bronx,NY,10453,"COMPASS/SONYC, Summer Rising",,Afterschool,,40.852643,-73.921271
Southeast Bronx Neighborhood Centers,Development Disabilities Center,,3289 Third Ave.,Bronx,Bronx,NY,10456,Other,,,,40.825483,-73.908308
Southeast Bronx Neighborhood Centers,Urban Assembly Bronx Academy of Letters 339 Morris Avenue,,330 Morris Avenue,Bronx,Bronx,NY,10456,"COMPASS/SONYC, Summer Rising",,Afterschool,,40.813198,-73.925492
Southeast Bronx Neighborhood Centers,First Estate IRA,,3320 Third Ave,Bronx,Bronx,NY,10456,"Other, Other Older Adult Services",,,Older Adults,40.826002,-73.907775
Southeast Bronx Neighborhood Centers,Youth Village Food and Nutrition Program,,391 E 149th St. Suite 615,Bronx,Bronx,NY,10455,"Family Services, Food Access",,,,40.816366,-73.918155
Southeast Bronx Neighborhood Centers,Gwendolyn B. Bland Early Learn Center,,749 East 163rd St.,Bronx,Bronx,NY,10456,Child Care Center,Early Childhood Education,,,40.823677,-73.903815
Southeast Bronx Neighborhood Centers,McKinley Community Center,,751 E 161st St.,Bronx,Bronx,NY,10456,"COMPASS/SONYC, Other",,Afterschool,,40.82172,-73.904631
Southeast Bronx Neighborhood Centers,Blondell Joyner Early Learn Center,,909 Tinton Ave,Bronx,Bronx,NY,10456,Child Care Center,Early Childhood Education,,,40.822109,-73.903689
Southeast Bronx Neighborhood Centers,PS 140 The Eagle School,,916 Eagle Ave,Bronx,Bronx,NY,10456,"COMPASS/SONYC, Summer Rising",,Afterschool,,40.8234,-73.907802
Southeast Bronx Neighborhood Centers,Forest Community Center,X,955 E 163 St,Bronx,Bronx,NY,10456,"Other, Other Children & Youth Services",,,,40.821149,-73.89539
Southwest Area Neighborhood Association,"Youth Development, Senior and Nutrition Programs, Family Emergency Programs, Preservation Program",,10 Cady St,Rochester,Rochester,NY,14608,"Health & Fitness, Other Children & Youth Services, Arts & Culture, Other Older Adult Services, Family Services",,,Older Adults,43.146104,-77.621102
St. Nicks/School Settlement,PS 46 Edward C. Blum School,,100 Clermont Ave,Brooklyn,Brooklyn,NY,11205,"LEAPS, Other Children & Youth Services, Arts & Culture",,Afterschool,,40.694486,-73.971293
St. Nicks/School Settlement,PS 18 Edward Bush School,,101 Maujer St.,Brooklyn,Brooklyn,NY,11206,"21st Century Community Learning Center, COMPASS/SONYC, Summer Rising, Arts & Culture",,Afterschool,,40.710759,-73.946491
St. Nicks/School Settlement,Madiba Prep,,1014 Lafayette Ave.,Brooklyn,Brooklyn,NY,11221,"21st Century Community Learning Center, COMPASS/SONYC, Summer Rising, Arts & Culture",,Afterschool,,40.691984,-73.93149
St. Nicks/School Settlement,PS 250 George H. Lindsay School,,108 Montrose Ave.,Brooklyn,Brooklyn,NY,11206,"21st Century Community Learning Center, COMPASS/SONYC, Summer Rising, Arts & Culture",,Afterschool,,40.706965,-73.945435
St. Nicks/School Settlement,PS 256 Benjamin Banneker,,114 Kosciusko Street,Brooklyn,Brooklyn,NY,11216,"LEAPS, Arts & Culture",,Afterschool,,40.690679,-73.949824
St. Nicks/School Settlement,School Settlement Community Center,,120 Jackson St.,Brooklyn,Brooklyn,NY,11211,"COMPASS/SONYC, Summer Rising, Arts & Culture",,Afterschool,,40.716379,-73.946603
St. Nicks/School Settlement,PS 34 Oliver H. Perry School,,131 Norman Ave.,Brooklyn,Brooklyn,NY,11222,"COMPASS/SONYC, Summer Rising, Arts & Culture",,Afterschool,,40.726253,-73.949699
St. Nicks/School Settlement,PS 16 Leonard Dunkley School,,157 Wilson Street,Brooklyn,Brooklyn,NY,11211,"LEAPS, Summer Rising, Arts & Culture",,Afterschool,,40.705806,-73.962036
St. Nicks/School Settlement,Summer Youth Employment @ Boys and Girls HS ,,1700 Fulton Street ,Brooklyn,Brooklyn ,NY,11213,Youth Employment Services,,,,40.679118,-73.931393
St. Nicks/School Settlement,"St. Nicks Alliance - Administration, Housing, Youth, Home Care",X,2 Kingsland Ave.,Brooklyn,Brooklyn,NY,11211,"Housing & Homelessness, Civic Engagement & Community Organizing",,,,40.716055,-73.939906
St. Nicks/School Settlement,"MS 582 The Upper Academy/The Magnet School for Multimedia, Technology, and Urban Planning",,207 Bushwick Ave.,Brooklyn,Brooklyn,NY,11206,COMPASS/SONYC,,Afterschool,,40.70877,-73.939804
St. Nicks/School Settlement,MS 577 Conselyea Preparatory School,,208 N 5th St.,Brooklyn,Brooklyn,NY,11211,"COMPASS/SONYC, Summer Rising, Arts & Culture",,Afterschool,,40.71537,-73.956969
St. Nicks/School Settlement,PS 17 Henry D. Woodworth School,,208 N 5th St.,Brooklyn,Brooklyn,NY,11211,"LEAPS, Arts & Culture",,Afterschool,,40.71537,-73.956969
St. Nicks/School Settlement,Swinging Sixties Senior Center; Small World Early Childhood Center,,211 Ainslie Street,Brooklyn,Brooklyn,NY,11211,"Child Care Center, Older Adult Center, Civic Engagement & Community Organizing",Early Childhood Education,,Older Adults,40.713058,-73.945557
St. Nicks/School Settlement,PS 59 William Floyd School,,211 Throop Ave.,Brooklyn,Brooklyn,NY,11206,"LEAPS, Arts & Culture",,Afterschool,,40.697855,-73.943655
St. Nicks/School Settlement,Summer Youth Emolyment @ Lyons Community School ,,223 Graham Ave ,Brooklyn,Brooklyn ,NY,11206,Youth Employment Services,,,,40.709823,-73.943912
St. Nicks/School Settlement,The Williamsburg HS for Art and Technology ,,223 Graham Ave.,Brooklyn,Brooklyn,NY,11206,"Community School, Youth Employment Services, Arts & Culture",,,,40.709823,-73.943912
St. Nicks/School Settlement,Learning to Work @ Bushwick Community HS,,231 Palmetto St.,Brooklyn,Brooklyn,NY,11221,"Youth Employment Services, Other Children & Youth Services, Arts & Culture",,,,40.695508,-73.915175
St. Nicks/School Settlement,Williamsburg Houses Tenant Services,,244 Graham Ave,Brooklyn,Brooklyn,NY,11206,"Civic Engagement & Community Organizing, Housing & Homelessness, Food Access, Family Services, Violence Prevention",,,,40.710419,-73.943454
St. Nicks/School Settlement,Summer Youth Employment @ Williamsburg Art and Design ,,257 N 6th Street ,Brooklyn,Brooklyn,NY,11211,Youth Employment Services,,,,40.715211,-73.954777
St. Nicks/School Settlement,Jennings Hall Senior Housing,,260 Powers St.,Brooklyn,Brooklyn,NY,11211,"Housing & Homelessness, Other Older Adult Services, Food Access",,,Older Adults,40.712753,-73.940016
St. Nicks/School Settlement,Cooper Park Older Adult Center,,288 Frost Street,Brooklyn,Brooklyn,NY,11222,Older Adult Center,,,Older Adults,40.718718,-73.93971
St. Nicks/School Settlement,St. Nicks Alliance Housing Services Office,,306 Union Ave.,Brooklyn,Brooklyn,NY,11211,"Civic Engagement & Community Organizing, Family Services, Housing & Homelessness, Violence Prevention",,,,40.709745,-73.950755
St. Nicks/School Settlement,PS 147 Isaac Remsen School,,325 Bushwick Avenue,Brooklyn,Brooklyn,NY,11206,"LEAPS, 21st Century Community Learning Center, Other Children & Youth Services",,Afterschool,,40.70478,-73.939007
St. Nicks/School Settlement,PS 414 Brooklyn Arbor School,,325 S 3rd St.,Brooklyn,Brooklyn,NY,11211,"COMPASS/SONYC, Summer Rising",,Afterschool,,40.709795,-73.954719
St. Nicks/School Settlement,PS 318  Williamsburg Early Childhood Center,,360 Keap St,Brooklyn,Brooklyn,NY,11211,"LEAPS, Arts & Culture",,Afterschool,,40.709714,-73.954072
St. Nicks/School Settlement,PS 150 Christopher School,,364 Sackman St. ,Brooklyn,Brooklyn,NY,11212,"Community School, COMPASS/SONYC, Summer Rising",,Afterschool,,40.668533,-73.904735
St. Nicks/School Settlement,PS 380 John Wayne School,,370 Marcy Avenue,Brooklyn,Brooklyn,NY,11206,"21st Century Community Learning Center, LEAPS, Arts & Culture",,Afterschool,,40.702293,-73.953027
St. Nicks/School Settlement,JHS 126 John Ericcson School,,424 Leonard St.,Brooklyn,Brooklyn,NY,11222,"Beacon, Community School, Other Children & Youth Services, Summer Rising, Arts & Culture",,Afterschool,,40.719781,-73.948474
St. Nicks/School Settlement,PS 44 Marcus Garvey School,,432 Monroe St,Brooklyn,Brooklyn,NY,11221,"LEAPS, Arts & Culture",,Afterschool,,40.686429,-73.940985
St. Nicks/School Settlement,Unity Prep Middle School,,432 Monroe Street,Brooklyn,Brooklyn,NY,11221,"COMPASS/SONYC, Arts & Culture",,Afterschool,,40.686429,-73.940985
St. Nicks/School Settlement,PS 23 Carter G. Woodson School,,545 Willoughby Ave.,Brooklyn,Brooklyn,NY,11206,"LEAPS, Arts & Culture, Food Access",,Afterschool,,40.694164,-73.947792
St. Nicks/School Settlement,PS 31 Samuel F. Dupont School,,75 Meserole St,Brooklyn,Brooklyn,NY,11222,"LEAPS, Arts & Culture",,Afterschool,,40.707873,-73.947307
St. Nicks/School Settlement,East Williamsburg Scholars Academy (Grand Street Campus),,850 Grand St.,Brooklyn,Brooklyn,NY,11211,"Beacon, Youth Employment Services, Other Children & Youth Services, Arts & Culture, Adult Literacy, Food Access",,Afterschool,,40.712139,-73.939287
St. Nicks/School Settlement,"High School for Enterprise, Business and Technology (Grand Street Campus)",,850 Grand St.,Brooklyn,Brooklyn,NY,11211,"Beacon, Other Children & Youth Services, Youth Employment Services, Arts & Culture, Adult Literacy, Food Access",,Afterschool,,40.712139,-73.939287
St. Nicks/School Settlement,Progress High School (Beacon Host; Grand Street Campus),,850 Grand St.,Brooklyn,Brooklyn,NY,11211,"Beacon, Youth Employment Services, Other Children & Youth Services, Arts & Culture, Food Access",,Afterschool,,40.712139,-73.939287
St. Nicks/School Settlement,AmeriCorps,,850 Grand Street ,Brooklyn,Brooklyn ,NY ,11211,"Workforce Development, Youth Employment Services",,,,40.712139,-73.939287
St. Nicks/School Settlement,Sumner Community Center (Cornerstone),,862 Park Avenue,Brooklyn,Brooklyn,NY,11206,"Cornerstone, Arts & Culture",,Afterschool,,40.698269,-73.940512
St. Nicks/School Settlement,St. Nicks Alliance Workforce Development Center,,92 Throop Avenue,Brooklyn,Brooklyn,NY,11206,Workforce Development,,,,40.701883,-73.946093
Sunnyside Community Services,Queens Technical High School,,37-02 47th Av,Long Island City,Queens,NY,11101,"21st Century Community Learning Center, Community School",,Afterschool,,40.741964,-73.927951
Sunnyside Community Services,Sunnyside UP 3-k and Pre-K,,39-01 Queens Blvd,Sunnyside,Queens,NY,11104,Other Children & Youth Services,,,,40.744273,-73.925663
Sunnyside Community Services,PS 199,,39-20 48th Ave.,Sunnyside,Queens,NY,11104,COMPASS/SONYC,,Afterschool,,40.739944,-73.926138
Sunnyside Community Services,PS 150,,40-01 43rd Ave.,Sunnyside,Queens,NY,11104,COMPASS/SONYC,,Afterschool,,40.745698,-73.923379
Sunnyside Community Services,Main Office,X,43-31 39th St.,Sunnyside,Queens,NY,11104,"Older Adult Center, Other Older Adult Services, Head Start, Adult Literacy, Immigrant Services, Civic Engagement & Community Organizing, Workforce Development, Food Access, Mental Health & Substance Abuse",Early Childhood Education,,Older Adults,40.744961,-73.925802
Sunnyside Community Services,PS 343,,45-45 42nd St,Sunnyside,Queens,NY,11104,"Beacon, Health & Fitness",,Afterschool,,40.742031,-73.922593
Sunnyside Community Services,Cornerstone Community Center at Woodside Houses,,50-19 Broadway,Woodside,Queens,NY,11377,Cornerstone,,Afterschool,,40.755433,-73.910199
Sunnyside Community Services,IS 5,,50-40 Jacobus St.,Elmhurst,Queens,NY,11373,Beacon,,Afterschool,,40.737105,-73.887742
Sunnyside Community Services,SCS@LIC,,5241 Center Blvd.,Long Island City,Queens,NY,11101,"Workforce Development, Other Older Adult Services",,,Older Adults,40.741237,-73.960574
Sunnyside Community Services,Boulevard Family Residence,,79-00 Queens Boulevard,Elmhurst,Queens,NY,11373,COMPASS/SONYC,,Afterschool,,40.737863,-73.884892
Syracuse Northeast Community Center,Main Office,X,716 Hawley Ave.,Syracuse,Syracuse,NY,13203,"Other Older Adult Services, Adult Literacy, Civic Engagement & Community Organizing, Arts & Culture, Food Access, Family Services, Immigrant Services, Workforce Development, Other, Other Children & Youth Services, Youth Employment Services",,,Older Adults,43.055014,-76.131958
Trinity Alliance,Main office; Active Parenting Workshop,X,15 Trinity Place,Albany,Capital Region,NY,12202,"Other Children & Youth Services, Arts & Culture, Other Older Adult Services, Family Services, Violence Prevention, Civic Engagement & Community Organizing, Health and Wellness, Food Access",,,Older Adults,42.645436,-73.756276
Trinity Alliance,518/Albany SNUG Main Office 4th Floor,,175 Central Avenue,Albany,Capital Region,NY,12206,"Violence Prevention, Mental Health & Substance Abuse",,,,42.66176,-73.768351
Trinity Alliance,Early Childhood and Family Support Services Department,,175 Central Avenue,Albany,Capital Region,NY,12206,Family Services,,,,42.66176,-73.768351
Trinity Alliance,Early Childhood Center; Prevention Services,,175 Central Avenue,Albany,Capital Region,NY,12206,Family Services,,,,42.66176,-73.768351
Trinity Alliance,P.A.T.H. Program 5th Floor,,175 Central Avenue,Albany,Capital Region,NY,12206,"Violence Prevention, Other Children & Youth Services",,,,42.66176,-73.768351
Trinity Alliance,Urban Grief,,175 Central Avenue,Albany,Capital Region,NY,12206,"Violence Prevention, Mental Health & Substance Abuse",,,,42.66176,-73.768351
Trinity Alliance,The Collaboratory; Wellness Advocates Linking Communities (WALC),,230 Green Street,Albany,Capital Region,NY,12202,Health and Wellness,,,,42.638919,-73.755305
Trinity Alliance,SNUG Troy,,3100 6th Ave,Troy,Capital Region,NY,12180,"Violence Prevention, Health & Fitness, Mental Health & Substance Abuse",,,,42.748795,-73.681449
Trinity Alliance,Arbor Hill Center,,47 North Lark St,Albany,Capital Region,NY,12210,"Other Children & Youth Services, Food Access, Jail Transition",,,,42.661726,-73.75751
Trinity Alliance,Koinonia Health Services,,553 Clinton Avenue,Albany,Capital Region,NY,12206,"Other, Health & Fitness, Mental Health & Substance Abuse",,,,42.665298,-73.768836
Trinity Alliance,Albany County Correctional Facility,,840 Albany Shaker Road,Albany,Capital Region,NY,12211,Jail Transition,,,,42.7533,-73.818656
Union Settlement,Johnson Counseling Center,,124 E 108th St,New York,Manhattan,NY,10029,Mental Health & Substance Abuse,,,,40.793792,-73.946124
Union Settlement,PS 138,,144 E 128th Street,New York,Manhattan,NY,10035,"COMPASS/SONYC, Summer Rising",,Afterschool,,40.805855,-73.935228
Union Settlement,Union Carver Early Childhood Center,,1565 Madison Ave.,New York,Manhattan,NY,10029,"Child Care Center, Head Start",Early Childhood Education,,,40.793222,-73.949387
Union Settlement,M 007,,160 East 120th Street,New York,Manhattan,NY,10035,"COMPASS/SONYC, Summer Rising",,Afterschool,,40.800879,-73.939267
Union Settlement,PS 108,,1615 Madison Ave #3513,New York,Manhattan,NY,10029,"21st Century Community Learning Center, COMPASS/SONYC, Summer Rising",,Afterschool,,40.795163,-73.948166
Union Settlement,Early Childhood Administration / Union Johnson Center,,1829 Lexington Ave.,New York,Manhattan,NY,10029,Head Start,Early Childhood Education,,,40.796626,-73.942555
Union Settlement,Gaylord White Senior Center,,2029 Second Ave.,New York,Manhattan,NY,10029,Older Adult Center,,,Older Adults,40.789668,-73.9435
Union Settlement,NORC at Franklin Plaza,,2078 Second Ave.,New York,Manhattan,NY,10029,NORC,,,Older Adults,40.791007,-73.941891
Union Settlement,Franklin Plaza Early Childhood Center; East Harlem Neighborhood Network,,2081 Second Ave.,New York,Manhattan,NY,10029,"Child Care Center, Head Start",Early Childhood Education,,,40.79156,-73.942031
Union Settlement,PS 96 Joseph Lanzetta,,216 East 120th Street,New York,Manhattan,NY,10035,COMPASS/SONYC,,Afterschool,,40.799927,-73.937029
Union Settlement,Jefferson Senior Center,,2205 First Ave.,New York,Manhattan,NY,10029,"Older Adult Center, Other Older Adult Services",,,Older Adults,40.794505,-73.937075
Union Settlement,Union Jefferson Early Childhood Center,,2211 1st Ave,New York,Manhattan,NY,10029,Head Start,Early Childhood Education,,,40.794549,-73.937092
Union Settlement,Park East,,230 E 105th St,New York,Manhattan,NY,10029,Other Children & Youth Services,,,,40.790289,-73.943979
Union Settlement,PS 38,,232 E 103rd St,New York,Manhattan,NY,10029,"Summer Rising, COMPASS/SONYC",,Afterschool,,40.788907,-73.944602
Union Settlement,NYC Benefits,,237 E. 104th Street,New York,Manhattan,NY,10029,Family Services,,,,40.789856,-73.943927
Union Settlement,Union Settlement Association; Gaylord White Community Center,X,237 E.104th St.,New York,Manhattan,NY,10029,"COMPASS/SONYC, Violence Prevention, Adult Literacy, Food Access, Family Services",,Afterschool,,40.789856,-73.943927
Union Settlement,M 372,,240 East 109th Street,New York,Manhattan,NY,10029,"21st Century Community Learning Center, Summer Rising, COMPASS/SONYC",,Afterschool,,40.792608,-73.941539
Union Settlement,Talent Unlimited High School ,,300 E 68th St,New York,Manhattan,NY,10065,Other Children & Youth Services,,,,40.766066,-73.960058
Union Settlement,Corsi / Corsi Senior Center,,307 East 116th St.,New York,Manhattan,NY,10029,"Youth Employment Services, Other Children & Youth Services, Adult Literacy, Violence Prevention, Workforce Development, Older Adult Center",,,Older Adults,40.79694,-73.93717
Union Settlement,Renaissance Charter for Innovation,,410 E 100th St - 2nd Fl,New York,Manhattan,NY,10029,Other Children & Youth Services,,,,40.785292,-73.942158
Union Settlement,PS 146,,421 E 106th Street,New York,Manhattan,NY,10029,Mental Health & Substance Abuse,,,,40.789327,-73.938932
Union Settlement,Wagner Older Adult Center,,435 East 120th St,New York,Manhattan,NY,10029,Older Adult Center,,,Older Adults,40.79819,-73.931492
Union Settlement,PS 112,,535 E 119th Street,New York,Manhattan,NY,10035,"COMPASS/SONYC, Summer Rising",,Afterschool,,40.796565,-73.930452
Union Settlement,Family Child Care Network,,71 E 111st Street,New York,Manhattan,NY,10029,Family Services,,,,40.796443,-73.946233
Union Settlement,C4 Community ChildCare Connection,,71 E. 111th Street,New York,Manhattan,NY,10029,Family Services,,,,40.796443,-73.946233
Union Settlement,East Side S.O.U.L Family Enrichment Center,,71 E. 111th Street ,New York,Manhattan,NY,10029,Family Services,,,,40.796443,-73.946233
Union Settlement,East Harlem Community Partnership,,71 E. 111th Street - 2nd Flr,New York,Manhattan,NY,10029,Family Services,,,,40.796443,-73.946233
University Settlement,Fort Greene Preparatory Academy (K691),,100 Clermont Avenue,Brooklyn,Brooklyn,NY,11205,COMPASS/SONYC,,Afterschool,,40.694486,-73.971293
University Settlement,PS 219,,1060 Clarkson Avenue,Brooklyn,Brooklyn,NY,11212,COMPASS/SONYC,,Afterschool,,40.659199,-73.922658
University Settlement,PS 63 @ Star Academy,,121 East 2rd Street,New York,Manhattan,NY,10009,,,,,40.722933,-73.985314
University Settlement,Village View,,175 East 4th Street,New York,Manhattan,NY,10009,"NORC, Other Older Adult Services",,,Older Adults,40.724616,-73.985123
University Settlement,184 Eldridge Street Headquarters and Main Campus,,175 Eldridge Street,New York,Manhattan,NY,10002,,,,,40.720405,-73.990994
University Settlement,184 Eldridge Street Headquarters and Main Campus,X,176-184 Eldridge Street,New York,Manhattan,NY,10002,"Child Care Center, Head Start, Other Children & Youth Services, Adult Literacy, Arts & Culture, Civic Engagement & Community Organizing, Mental Health & Substance Abuse, Family Services",Early Childhood Education,,,40.720309,-73.990755
University Settlement,Ingersoll Community Center,,177 Myrtle Avenue,Brooklyn,Brooklyn,NY,11201,Cornerstone,,Afterschool,,40.693722,-73.98204
University Settlement,189 Allen,,189 Allen Street,New York,Manhattan,NY,10002,"Older Adult Center, Other Older Adult Services, Food Access",,,Older Adults,40.722096,-73.989436
University Settlement,North Star Academy,,227 Sterling Place,Brooklyn,Brooklyn,NY,11238,COMPASS/SONYC,,Afterschool,,40.676113,-73.969849
University Settlement,PS 134,,293 East Broadway,New York,Manhattan,NY,10002,COMPASS/SONYC,,Afterschool,,40.714522,-73.983153
University Settlement,Institute for Collaborative Education (MS407),,345 East 15th Street,New York,Manhattan,NY,10003,COMPASS/SONYC,,Afterschool,,40.732424,-73.982745
University Settlement,Creative Steps,,4 Washington Square Village,New York,Manhattan,NY,10012,Child Care Center,Early Childhood Education,,,40.727286,-73.99702
University Settlement,Beacon @ East Side Community High School,,420 East 12th Street,New York,Manhattan,NY,10009,Beacon,,Afterschool,,40.729392,-73.982502
University Settlement,Atlantic Terminal Community Center,,501 Carlton Avenue,Brooklyn,Brooklyn,NY,11238,Cornerstone,,Afterschool,,40.682811,-73.970631
University Settlement,Early Head Start,,534 Livonia Ave,Brooklyn,Brooklyn,NY,11207,"Head Start, Family Services",Early Childhood Education,,,40.664367,-73.895664
University Settlement,Children's Corner,,565 Livonia Avenue,Brooklyn,Brooklyn,NY,11207,"Child Care Center, Head Start, Family Services, Housing & Homelessness",Early Childhood Education,,,40.664557,-73.896234
University Settlement,PS 133,,610 Baltic Street,Brooklyn,Brooklyn,NY,11217,COMPASS/SONYC,,Afterschool,,40.680309,-73.980473
University Settlement,Campos Plaza Community Center,,611 East 13th Street,New York,Manhattan,NY,10009,Cornerstone,,Afterschool,,40.728453,-73.97747
University Settlement,PS 130 (K-2nd),,70 Ocean Parkway,Brooklyn,Brooklyn,NY,11218,COMPASS/SONYC,,Afterschool,,40.648967,-73.975849
University Settlement,PS 130 (3rd-5th),,713 Caton Ave,Brooklyn,Brooklyn,NY,11218,COMPASS/SONYC,,Afterschool,,40.647869,-73.972963
University Settlement,Franklin D. Roosevelt (MS034),,730 East 12th Street,New York,Manhattan,NY,10009,Community School,,,,40.726386,-73.975184
University Settlement,Early Head Start Program,,89 Catherine Street,New York,Manhattan,NY,10038,Head Start,Early Childhood Education,,,40.710537,-73.996382
University Settlement,East Flatbush Community Research School,,905 Winthrop Street,Brooklyn,Brooklyn,NY,11203,COMPASS/SONYC,,Afterschool,,40.658652,-73.928572
University Settlement,Meltzer Senior Center,,94 East 1st Street,New York,Manhattan,NY,10009,"Older Adult Center, Other Older Adult Services",,,Older Adults,40.723075,-73.987051
Westcott,Annex,,821 Euclid Ave,Syracuse,Syracuse ,NY,13210,"Youth Employment Services, Family Services, Immigrant Services, Workforce Development",,,,43.036956,-76.119394
Westcott,Main Office,X,826 Euclid Ave,Syracuse,Syracuse,NY,13210,"21st Century Community Learning Center, LEAPS, Older Adult Center, Other Older Adult Services, Adult Literacy, Arts & Culture, Civic Engagement & Community Organizing, Food Access, Family Services, Health & Fitness, Immigrant Services",,Afterschool,Older Adults,43.036531,-76.119214
WHEDco,Union Square Job Center #39,,109 E 16th Street,New York,Manhattan,NY,10003,Other Children & Youth Services,,,,40.735665,-73.988427
WHEDco,School Partnership - PS/MS 218,,1220 Gerard Ave,Bronx,Bronx,NY,10452,"COMPASS/SONYC, Food Access, Health & Fitness, Mental Health & Substance Abuse, Summer Rising",,Afterschool,,40.835827,-73.919916
WHEDco,Teen Program,,1240 Gerard Avenue,Bronx,Bronx,NY,10452,"Food Access, Mental Health & Substance Abuse, Health & Fitness",,,,40.836236,-73.919612
WHEDco,Home-based Childcare Programs,,1309 Louis Nine Boulevard,Bronx,Bronx,NY,10459,Other Children & Youth Services,,,,40.831301,-73.892354
WHEDco,Intervale Green Housing Development,,1330 Intervale Avenue,Bronx,Bronx,NY,10459,"Food Access, Family Services",,,,40.831107,-73.892603
WHEDco,Jamaica Job Center #54,,"165-08 88th Ave, 2nd Floor",Jamaica,Queens,NY,11432,Other Children & Youth Services,,,,40.708653,-73.796375
WHEDco,Crotona Job Center #46,,1910 Monterey Ave,Bronx,Bronx,NY,10457,Other Children & Youth Services,,,,40.846981,-73.894963
WHEDco,Coney Island Job Center,,"1912 Mermaid Avenue, 1st Floor",Brooklyn,Brooklyn,NY,11224,Other Children & Youth Services,,,,40.57635,-73.986208
WHEDco,Bushwick Job Center,,"2 George Street, 1st Floor",Brooklyn,Brooklyn,NY,11206,Other Children & Youth Services,,,,40.700059,-73.932781
WHEDco,School Partnership - Highbridge Green School,,200 West 167th Street,Bronx,Bronx,NY,10452,"Food Access, COMPASS/SONYC, Health & Fitness, Mental Health & Substance Abuse",,Afterschool,,40.838217,-73.928036
WHEDco,East End Job Center #23,,"2332 3rd Ave, 5th Floor",New York,Manhattan,NY,10035,Other Children & Youth Services,,,,40.80494,-73.93473
WHEDco,Fordham Job Center #44,,2541-2549 Bainbridge Ave,Bronx,Bronx,NY,10458,Other Children & Youth Services,,,,40.862475,-73.893409
WHEDco,Boerum Hill Job Center,,"275 Bergen Street, 1st Floor",Brooklyn,Brooklyn,NY,11217,Other Children & Youth Services,,,,40.683833,-73.982754
WHEDco,Rider Job Center,,305 Rider Ave,Bronx,Bronx,NY,10451,Other Children & Youth Services,,,,40.81316,-73.926974
WHEDco,East River Job Center #37,,32-20 Northern Blvd,Long Island City,Queens,NY,11101,Other Children & Youth Services,,,,40.751838,-73.931663
WHEDco,Queens Job Center,,"32-20 Northern Blvd, 4th Floor",Long Island City,Queens,NY,11101,Other Children & Youth Services,,,,40.751838,-73.931663
WHEDco,Northern Boulevard Job Center #53,,"34-00 Northern Blvd, 5th Floor",Long Island City,Queens,NY,11101,Other Children & Youth Services,,,,40.751882,-73.929698
WHEDco,Dyckman Job Center #35,,"4055 10th Ave, 1st Floor",New York,Manhattan,NY,10034,Other Children & Youth Services,,,,40.870381,-73.914371
WHEDco,School Partnership - South Bronx Early College Academy Charter School,,423 East 138th Street,Bronx,Bronx,NY,10454,"COMPASS/SONYC, Food Access, Mental Health & Substance Abuse, Health & Fitness",,Afterschool,,40.808832,-73.921779
WHEDco,Bronx Music Heritage Center,,428 East 163rd Street,Bronx,Bronx,NY,10451,Arts & Culture,,,,40.824871,-73.912191
WHEDco,Bronx Commons,X,443 E 162nd Street,Bronx,Bronx,NY,10451,"Family Services, Health & Fitness, Food Access, Arts & Culture",,,,40.824473,-73.912098
WHEDco,Clinton Hill Job Center #67,,495 Clermont Ave,Brooklyn,Brooklyn,NY,11238,Other Children & Youth Services,,,,40.682684,-73.968616
WHEDco,Clinton Hill Job Center,,"495 Clermont Ave, 4th Floor",Brooklyn,Brooklyn,NY,11238,Other Children & Youth Services,,,,40.682684,-73.968616
WHEDco,Urban Horizons Housing Development & Economic Development Center,,50 East 168th Street,Bronx,Bronx,NY,10452,"Adult Literacy, Head Start, Civic Engagement & Community Organizing, Food Access, Mental Health & Substance Abuse, Other Children & Youth Services",Early Childhood Education,,,40.836488,-73.919038
WHEDco,ACS Office,,"66 John Street, 7th Floor",New York,Manhattan,NY,10038,Other Children & Youth Services,,,,40.708894,-74.007687
WHEDco,Hunts Point Job Center #40,,845 Barretto Street,Bronx,Bronx,NY,10474,Other Children & Youth Services,,,,40.817313,-73.890272
The Opportunity Hub,Main Office,X,1234 Pennsylvania Avenue,Brooklyn,Brooklyn,NY,11239,"Workforce Development, Food Access, Other Older Adult Services, Mental Health & Substance Abuse",,,Older Adults,40.6500261,-73.8871842
The Opportunity Hub,Teen and Young Adult Programs,,1540 Van Siclen Avenue,Brooklyn,Brooklyn,NY,11239,"Other Children & Youth Services, Workforce Development, Mental Health & Substance Abuse, Civic Engagement & Community Organizing",,,,40.6474708,-73.8804133
The Opportunity Hub,Spring Creek Towers Farm,,1430 Freeport Loop,Brooklyn,Brooklyn,NY,11239,"Food Access, Other Older Adult Services, Other Children & Youth Services",,,Older Adults,40.6449037,-73.884129